{"type":"Feature","properties":{"MUN":"BRADLEY BEACH BORO","COUNTY":"MONMOUTH","MUN_LABEL":"Bradley Beach Borough","MUN_TYPE":"Borough","NAME":"Bradley Beach Borough","GNIS_NAME":"Borough of Bradley Beach"},"geometry":{"type":"Polygon","coordinates":[[[-74.0101468,40.2068614],[-74.0097229,40.2068155],[-74.0093057,40.2068468],[-74.0089775,40.2069265],[-74.0085935,40.207043],[-74.0085934,40.207043],[-74.0085932,40.2070431],[-74.008561,40.2070528],[-74.0081676,40.2072065],[-74.007766,40.2074372],[-74.0073645,40.2076897],[-74.0070544,40.207904],[-74.0067603,40.2081456],[-74.0065057,40.2083046],[-74.0064524,40.2083379],[-74.0061501,40.2084861],[-74.0059074,40.2085849],[-74.0056424,40.2085905],[-74.0052186,40.2085518],[-74.004897,40.2085024],[-74.0048784,40.2085003],[-74.0048783,40.2085003],[-74.0046456,40.2084508],[-74.0045654,40.2084338],[-74.0045244,40.2084251],[-74.0042384,40.2083643],[-74.0041394,40.2083432],[-74.0038524,40.2082822],[-74.0038461,40.2082809],[-74.0035032,40.2082088],[-74.002919,40.2080859],[-74.002956,40.2080309],[-74.0029904,40.2079799],[-74.0031864,40.2077189],[-74.0033007,40.2075367],[-74.0034961,40.2071881],[-74.0037941,40.2065894],[-74.0038992,40.2063261],[-74.0039494,40.206185],[-74.0040022,40.2060214],[-74.0040841,40.2057345],[-74.0041249,40.2055255],[-74.0041534,40.2053297],[-74.0042213,40.2049504],[-74.0042198,40.2048092],[-74.0042058,40.2047111],[-74.0041855,40.204631],[-74.0041684,40.2046158],[-74.0041269,40.2045761],[-74.0041076,40.2045327],[-74.0041054,40.2044931],[-74.0041179,40.2044668],[-74.0041475,40.2044537],[-74.004224,40.2044032],[-74.0043082,40.204315],[-74.004358,40.2042173],[-74.0043882,40.204127],[-74.0044256,40.2040556],[-74.0044803,40.2039579],[-74.0045425,40.2038526],[-74.0045813,40.203752],[-74.004604,40.2036749],[-74.0046463,40.2035997],[-74.0048229,40.2033009],[-74.0049449,40.2030829],[-74.0051031,40.2027832],[-74.0052434,40.2024089],[-74.005313,40.2021162],[-74.0053894,40.2017492],[-74.0053992,40.2015844],[-74.005364,40.2013582],[-74.0053163,40.2011565],[-74.0053241,40.2011075],[-74.005354,40.2010511],[-74.0054159,40.2009742],[-74.0055534,40.2008212],[-74.0055884,40.2007404],[-74.0056457,40.200622],[-74.0057534,40.2003455],[-74.0058607,40.2001124],[-74.0062046,40.1994394],[-74.0063897,40.1989825],[-74.0064565,40.1987444],[-74.0065098,40.1985224],[-74.0065388,40.1982494],[-74.0065504,40.1978321],[-74.0065416,40.1975147],[-74.0065136,40.1973205],[-74.0064699,40.1972488],[-74.0064113,40.1971958],[-74.006387,40.1971524],[-74.0063898,40.1971071],[-74.0064097,40.1970771],[-74.0064764,40.1970265],[-74.0065876,40.1969384],[-74.006652,40.1968596],[-74.0066833,40.1967853],[-74.0067536,40.1965671],[-74.0068905,40.1959818],[-74.0069303,40.1957475],[-74.0069592,40.1955352],[-74.009523,40.1955547],[-74.0097712,40.1955632],[-74.0100195,40.1955702],[-74.0102679,40.1955755],[-74.0105164,40.1955792],[-74.0107648,40.1955812],[-74.0110133,40.1955817],[-74.0112618,40.1955805],[-74.0115102,40.1955776],[-74.0117586,40.1955732],[-74.012007,40.1955671],[-74.0122553,40.1955593],[-74.0125034,40.19555],[-74.0127515,40.195539],[-74.0129994,40.1955264],[-74.0132472,40.1955122],[-74.0134948,40.1954964],[-74.0137422,40.1954789],[-74.0139895,40.1954598],[-74.0142365,40.1954391],[-74.0144832,40.1954167],[-74.0147297,40.1953928],[-74.0149759,40.1953672],[-74.0152218,40.1953401],[-74.0154675,40.1953113],[-74.0157127,40.1952809],[-74.0159576,40.1952489],[-74.0162022,40.1952153],[-74.0164464,40.1951801],[-74.0166901,40.1951432],[-74.0169335,40.1951048],[-74.0170042,40.1951019],[-74.0170751,40.1951006],[-74.0171459,40.1951008],[-74.0172167,40.1951026],[-74.0172875,40.1951059],[-74.017358,40.1951108],[-74.0174284,40.1951173],[-74.0174984,40.1951254],[-74.0175682,40.195135],[-74.0176375,40.1951461],[-74.0177064,40.1951588],[-74.0177748,40.1951729],[-74.0178426,40.1951886],[-74.0179098,40.1952058],[-74.0179763,40.1952245],[-74.0180421,40.1952446],[-74.0181071,40.1952662],[-74.0181712,40.1952892],[-74.0182344,40.1953137],[-74.0182967,40.1953395],[-74.0184776,40.195445],[-74.0186574,40.1955515],[-74.0188362,40.195659],[-74.0191061,40.195796],[-74.0193771,40.1959316],[-74.0196493,40.1960659],[-74.0199227,40.1961988],[-74.0201971,40.1963304],[-74.0204727,40.1964606],[-74.0204997,40.1964689],[-74.0205258,40.1964786],[-74.020551,40.1964897],[-74.0205751,40.1965022],[-74.0205979,40.196516],[-74.0206194,40.1965309],[-74.0206395,40.196547],[-74.020658,40.1965642],[-74.0206748,40.1965823],[-74.0206899,40.1966013],[-74.0207031,40.1966211],[-74.0207145,40.1966415],[-74.0207384,40.1966999],[-74.0207602,40.1967586],[-74.0207799,40.1968179],[-74.0207976,40.1968775],[-74.0208132,40.1969374],[-74.0208267,40.1969976],[-74.0208381,40.1970581],[-74.0208474,40.1971188],[-74.0208546,40.1971797],[-74.0208596,40.1972407],[-74.0208609,40.1972605],[-74.0208643,40.1972802],[-74.0208697,40.1972996],[-74.020877,40.1973186],[-74.0208863,40.1973372],[-74.0208974,40.1973551],[-74.0209103,40.1973723],[-74.020925,40.1973887],[-74.0209413,40.1974042],[-74.0209591,40.1974186],[-74.0209784,40.1974319],[-74.0209989,40.1974441],[-74.0212629,40.1974973],[-74.0196779,40.2019829],[-74.0192362,40.2032056],[-74.0185049,40.2052299],[-74.0177586,40.2072956],[-74.0172244,40.208771],[-74.0170275,40.2087291],[-74.0170199,40.2087275],[-74.0169004,40.208702],[-74.0163788,40.2085909],[-74.0161321,40.2085384],[-74.0158999,40.2084889],[-74.01524,40.2083484],[-74.015102,40.208319],[-74.0149986,40.2082969],[-74.014592,40.2082103],[-74.0145306,40.2081972],[-74.014454,40.2081809],[-74.0142199,40.2081311],[-74.0141388,40.2081138],[-74.0138282,40.2080476],[-74.0137958,40.2080407],[-74.0136967,40.2080015],[-74.0134211,40.207894],[-74.0129751,40.2077429],[-74.0126618,40.2076265],[-74.0124512,40.2075482],[-74.0123505,40.2075107],[-74.012282,40.2074853],[-74.0122196,40.2074621],[-74.0121134,40.2074226],[-74.0120359,40.2073938],[-74.0119399,40.2073706],[-74.0119379,40.2073701],[-74.0119048,40.2073621],[-74.0117613,40.2073301],[-74.0117592,40.2073297],[-74.0115789,40.2072895],[-74.0116048,40.2072185],[-74.0116218,40.207172],[-74.011633,40.2071412],[-74.0114853,40.2071104],[-74.0114793,40.2071092],[-74.0114768,40.2071087],[-74.0112354,40.2070584],[-74.0109192,40.2069869],[-74.010628,40.206935],[-74.0101468,40.2068614]]]}}
