{"type":"FeatureCollection","name":"bradley_beach_road_centerlines","metadata":{"source":"NJOGIS NG911 Road Centerlines (Tran_road)","url":"https://services2.arcgis.com/XVOqAjTOJ5P6ngMu/arcgis/rest/services/Tran_road/FeatureServer/0","query_url":"https://services2.arcgis.com/XVOqAjTOJ5P6ngMu/arcgis/rest/services/Tran_road/FeatureServer/0/query","retrieved_at_utc":"2026-09-04T20:05:04.017476+00:00","source_last_edit_date":1785341586960,"out_sr":4326,"query_envelope_wgs84":[-74.0212629,40.1951006,-74.002919,40.208771],"spatial_relationship":"esriSpatialRelIntersects","boundary_file":"bradley_beach_boundary.geojson","boundary_sha256":"0e5b44c9d89b7d68f9b02583898e91dddecb6c2c8c2dce6182a68d34fa538b8f","fields":["OBJECTID","PRIMENAME","ELEVTYP_F","ELEVTYP_T"],"feature_count":314,"complete_objectid_inventory_verified":true,"municipal_clipping":"Envelope selection only; clip against the actual municipal boundary in the application."},"features":[{"type":"Feature","id":1732,"properties":{"OBJECTID":1732,"PRIMENAME":"New Jersey Avenue","ELEVTYP_F":0,"ELEVTYP_T":0},"geometry":{"type":"LineString","coordinates":[[-74.011790704384,40.2088780542816],[-74.0119612885874,40.2084083192487]]}},{"type":"Feature","id":3705,"properties":{"OBJECTID":3705,"PRIMENAME":"Ocean Avenue","ELEVTYP_F":0,"ELEVTYP_T":0},"geometry":{"type":"LineString","coordinates":[[-74.005990707988,40.2056377933706],[-74.0057801464554,40.2063026184596]]}},{"type":"Feature","id":3722,"properties":{"OBJECTID":3722,"PRIMENAME":"Evergreen Avenue","ELEVTYP_F":0,"ELEVTYP_T":0},"geometry":{"type":"LineString","coordinates":[[-74.0181491829589,40.1986513276613],[-74.0193111801397,40.1990098306027],[-74.0194453177809,40.1990517032205]]}},{"type":"Feature","id":3925,"properties":{"OBJECTID":3925,"PRIMENAME":"New York Avenue","ELEVTYP_F":0,"ELEVTYP_T":0},"geometry":{"type":"LineString","coordinates":[[-74.010555945907,40.2076011008704],[-74.0103829869868,40.2080664312618]]}},{"type":"Feature","id":4379,"properties":{"OBJECTID":4379,"PRIMENAME":"Memorial Drive","ELEVTYP_F":0,"ELEVTYP_T":0},"geometry":{"type":"LineString","coordinates":[[-74.0197139431006,40.2022922506039],[-74.0198154182815,40.2020155154958]]}},{"type":"Feature","id":4947,"properties":{"OBJECTID":4947,"PRIMENAME":"9th Avenue","ELEVTYP_F":0,"ELEVTYP_T":0},"geometry":{"type":"LineString","coordinates":[[-74.0183684275257,40.206346510065],[-74.0185012929373,40.2063675972352],[-74.0205774101913,40.2066969978759]]}},{"type":"Feature","id":5306,"properties":{"OBJECTID":5306,"PRIMENAME":"Stockton Avenue","ELEVTYP_F":0,"ELEVTYP_T":0},"geometry":{"type":"LineString","coordinates":[[-74.009118410391,40.2077918484326],[-74.0103829869868,40.2080664312618]]}},{"type":"Feature","id":5688,"properties":{"OBJECTID":5688,"PRIMENAME":"West End Avenue","ELEVTYP_F":0,"ELEVTYP_T":0},"geometry":{"type":"LineString","coordinates":[[-74.020676620383,40.1954981548285],[-74.0207481222723,40.1955473718859]]}},{"type":"Feature","id":8121,"properties":{"OBJECTID":8121,"PRIMENAME":"Pilgrim Pathway","ELEVTYP_F":0,"ELEVTYP_T":0},"geometry":{"type":"LineString","coordinates":[[-74.009118410391,40.2077918484326],[-74.0092705387606,40.2073711797157],[-74.0093357516325,40.2071908731713]]}},{"type":"Feature","id":19463,"properties":{"OBJECTID":19463,"PRIMENAME":"Lake Terrace","ELEVTYP_F":0,"ELEVTYP_T":0},"geometry":{"type":"LineString","coordinates":[[-74.0131556984912,40.2074181663577],[-74.0134700780574,40.2075071172441],[-74.0139043562358,40.2076233640272],[-74.0140906578948,40.2076527515638],[-74.0143453781839,40.2076728724389],[-74.0153901372791,40.2077700679732]]}},{"type":"Feature","id":19885,"properties":{"OBJECTID":19885,"PRIMENAME":"5th Avenue","ELEVTYP_F":0,"ELEVTYP_T":0},"geometry":{"type":"LineString","coordinates":[[-74.0197139431006,40.2022922506039],[-74.0198613554345,40.2023158950365],[-74.0220302409954,40.2026639092362]]}},{"type":"Feature","id":39261,"properties":{"OBJECTID":39261,"PRIMENAME":"Main Street","ELEVTYP_F":0,"ELEVTYP_T":0},"geometry":{"type":"LineString","coordinates":[[-74.0194453177809,40.1990517032205],[-74.0192786801767,40.1995107053061],[-74.0190858200386,40.2000425113076]]}},{"type":"Feature","id":40659,"properties":{"OBJECTID":40659,"PRIMENAME":"Beach Avenue","ELEVTYP_F":0,"ELEVTYP_T":0},"geometry":{"type":"LineString","coordinates":[[-74.0078818944972,40.2059407442327],[-74.0079108065079,40.2058342689573]]}},{"type":"Feature","id":41746,"properties":{"OBJECTID":41746,"PRIMENAME":"Ocean Avenue","ELEVTYP_F":0,"ELEVTYP_T":0},"geometry":{"type":"LineString","coordinates":[[-74.0090574726874,40.1955511488375],[-74.0090737997118,40.1956306097927],[-74.0090792404459,40.1957497767287],[-74.0090639417416,40.1958358586187]]}},{"type":"Feature","id":42628,"properties":{"OBJECTID":42628,"PRIMENAME":"2nd Avenue","ELEVTYP_F":0,"ELEVTYP_T":0},"geometry":{"type":"LineString","coordinates":[[-74.0182785214126,40.1997988333683],[-74.0177590584704,40.1996420321032],[-74.0167913816147,40.1993499092529]]}},{"type":"Feature","id":43573,"properties":{"OBJECTID":43573,"PRIMENAME":"3rd Avenue","ELEVTYP_F":0,"ELEVTYP_T":0},"geometry":{"type":"LineString","coordinates":[[-74.0137139091191,40.1992099446852],[-74.0145788128038,40.1993475435742],[-74.0152943762641,40.1994624659131]]}},{"type":"Feature","id":43690,"properties":{"OBJECTID":43690,"PRIMENAME":"Hammond Avenue","ELEVTYP_F":0,"ELEVTYP_T":0},"geometry":{"type":"LineString","coordinates":[[-74.0154937614915,40.2048126814214],[-74.0157627819026,40.2038179376235]]}},{"type":"Feature","id":44654,"properties":{"OBJECTID":44654,"PRIMENAME":"McCabe Avenue","ELEVTYP_F":0,"ELEVTYP_T":0},"geometry":{"type":"LineString","coordinates":[[-74.0066912683839,40.2034087512121],[-74.0068730473862,40.2034376095988],[-74.008485858715,40.2036934634264]]}},{"type":"Feature","id":44728,"properties":{"OBJECTID":44728,"PRIMENAME":"Central Avenue","ELEVTYP_F":0,"ELEVTYP_T":0},"geometry":{"type":"LineString","coordinates":[[-74.0115146771952,40.1999240334096],[-74.0114592771365,40.2001255756867],[-74.011261328295,40.200858712344],[-74.0112385973683,40.2009431157383]]}},{"type":"Feature","id":44843,"properties":{"OBJECTID":44843,"PRIMENAME":"Memorial Drive","ELEVTYP_F":0,"ELEVTYP_T":0},"geometry":{"type":"LineString","coordinates":[[-74.0204369462089,40.2002848405045],[-74.0207042206308,40.199520157767],[-74.0207229839644,40.1994433404342]]}},{"type":"Feature","id":44925,"properties":{"OBJECTID":44925,"PRIMENAME":"Bradley Boulevard","ELEVTYP_F":0,"ELEVTYP_T":0},"geometry":{"type":"LineString","coordinates":[[-74.0178282931623,40.1957258777433],[-74.0181564786834,40.1958403490721],[-74.0194481799469,40.1963286372674]]}},{"type":"Feature","id":45041,"properties":{"OBJECTID":45041,"PRIMENAME":"Pennsylvania Avenue","ELEVTYP_F":0,"ELEVTYP_T":0},"geometry":{"type":"LineString","coordinates":[[-74.0111681998866,40.208236963218],[-74.0111981411578,40.2081562146997],[-74.0113341929331,40.2077787670997]]}},{"type":"Feature","id":45237,"properties":{"OBJECTID":45237,"PRIMENAME":"3rd Avenue","ELEVTYP_F":0,"ELEVTYP_T":0},"geometry":{"type":"LineString","coordinates":[[-74.0186252810774,40.1999035011249],[-74.0182785214126,40.1997988333683]]}},{"type":"Feature","id":45700,"properties":{"OBJECTID":45700,"PRIMENAME":"Beach Avenue","ELEVTYP_F":0,"ELEVTYP_T":0},"geometry":{"type":"LineString","coordinates":[[-74.0079108065079,40.2058342689573],[-74.008050471181,40.2053204561133],[-74.0080643098196,40.2052684929796]]}},{"type":"Feature","id":45778,"properties":{"OBJECTID":45778,"PRIMENAME":"Madison Avenue","ELEVTYP_F":0,"ELEVTYP_T":0},"geometry":{"type":"LineString","coordinates":[[-74.014201218718,40.1974212027245],[-74.0144544919669,40.1964642526333]]}},{"type":"Feature","id":46957,"properties":{"OBJECTID":46957,"PRIMENAME":"Fletcher Lake Avenue","ELEVTYP_F":0,"ELEVTYP_T":0},"geometry":{"type":"LineString","coordinates":[[-74.0157128490978,40.1978986230402],[-74.0156950478127,40.1979652857978],[-74.0154347289707,40.1989378031488]]}},{"type":"Feature","id":47046,"properties":{"OBJECTID":47046,"PRIMENAME":"Madison Avenue","ELEVTYP_F":0,"ELEVTYP_T":0},"geometry":{"type":"LineString","coordinates":[[-74.0144544919669,40.1964642526333],[-74.0146033841849,40.1959017692886],[-74.0146282553619,40.1958077657321]]}},{"type":"Feature","id":47202,"properties":{"OBJECTID":47202,"PRIMENAME":"Burlington Avenue","ELEVTYP_F":0,"ELEVTYP_T":0},"geometry":{"type":"LineString","coordinates":[[-74.0153042719049,40.195734828911],[-74.0156541137306,40.195848958469],[-74.0174378799219,40.1964308541744]]}},{"type":"Feature","id":47534,"properties":{"OBJECTID":47534,"PRIMENAME":"Fletcher Lake Avenue","ELEVTYP_F":0,"ELEVTYP_T":0},"geometry":{"type":"LineString","coordinates":[[-74.0114789741568,40.2073770343993],[-74.0114028553047,40.2073516213057],[-74.0113159852323,40.2073226492521],[-74.0112416455401,40.2072937291402],[-74.0107132389861,40.207177898659]]}},{"type":"Feature","id":50206,"properties":{"OBJECTID":50206,"PRIMENAME":"Inskip Avenue","ELEVTYP_F":0,"ELEVTYP_T":0},"geometry":{"type":"LineString","coordinates":[[-74.0144383194753,40.2084418789123],[-74.0136751263139,40.208280136015]]}},{"type":"Feature","id":50360,"properties":{"OBJECTID":50360,"PRIMENAME":"Kent Avenue","ELEVTYP_F":0,"ELEVTYP_T":0},"geometry":{"type":"LineString","coordinates":[[-74.0054139485198,40.2074584263258],[-74.0055756089524,40.2074832477367],[-74.0057991434724,40.207517557782],[-74.006187758964,40.2070759675529],[-74.0062255162035,40.2070141677728],[-74.0062637573749,40.2068856608541],[-74.0063376348392,40.2066620210802],[-74.0064099744353,40.2064430356713],[-74.0064228245203,40.2064039976824]]}},{"type":"Feature","id":50800,"properties":{"OBJECTID":50800,"PRIMENAME":"Ocean Park Avenue","ELEVTYP_F":0,"ELEVTYP_T":0},"geometry":{"type":"LineString","coordinates":[[-74.0152964145479,40.2055459089191],[-74.0137201033242,40.2052981544484]]}},{"type":"Feature","id":50859,"properties":{"OBJECTID":50859,"PRIMENAME":"Central Avenue","ELEVTYP_F":0,"ELEVTYP_T":0},"geometry":{"type":"LineString","coordinates":[[-74.0117947246149,40.1989046102955],[-74.0115146771952,40.1999240334096]]}},{"type":"Feature","id":51648,"properties":{"OBJECTID":51648,"PRIMENAME":"Newark Avenue","ELEVTYP_F":0,"ELEVTYP_T":0},"geometry":{"type":"LineString","coordinates":[[-74.0098291027083,40.2061385110615],[-74.0114018617124,40.2063879499296],[-74.0117632205741,40.2064456972926]]}},{"type":"Feature","id":51815,"properties":{"OBJECTID":51815,"PRIMENAME":"Hammond Avenue","ELEVTYP_F":0,"ELEVTYP_T":0},"geometry":{"type":"LineString","coordinates":[[-74.0149400228878,40.2068711706802],[-74.0149608397315,40.2067937316266],[-74.0151045750556,40.2062593388512]]}},{"type":"Feature","id":56762,"properties":{"OBJECTID":56762,"PRIMENAME":"Stockton Avenue","ELEVTYP_F":0,"ELEVTYP_T":0},"geometry":{"type":"LineString","coordinates":[[-74.0103829869868,40.2080664312618],[-74.0111681998866,40.208236963218]]}},{"type":"Feature","id":57155,"properties":{"OBJECTID":57155,"PRIMENAME":"Pacific Avenue","ELEVTYP_F":0,"ELEVTYP_T":0},"geometry":{"type":"LineString","coordinates":[[-74.019090281549,40.1969686363563],[-74.0185961509227,40.1978521477475]]}},{"type":"Feature","id":57524,"properties":{"OBJECTID":57524,"PRIMENAME":"Madison Avenue","ELEVTYP_F":0,"ELEVTYP_T":0},"geometry":{"type":"LineString","coordinates":[[-74.0126070927199,40.2033030263175],[-74.0128867110003,40.2022783006832]]}},{"type":"Feature","id":57559,"properties":{"OBJECTID":57559,"PRIMENAME":"Main Street","ELEVTYP_F":0,"ELEVTYP_T":0},"geometry":{"type":"LineString","coordinates":[[-74.0190781167337,40.2000636730553],[-74.019017212018,40.2002317045678],[-74.0188127968413,40.2007920683202],[-74.0187120069179,40.2010715831297]]}},{"type":"Feature","id":58765,"properties":{"OBJECTID":58765,"PRIMENAME":"Clark Avenue","ELEVTYP_F":0,"ELEVTYP_T":0},"geometry":{"type":"LineString","coordinates":[[-74.0074797815691,40.2084722998393],[-74.007602657453,40.208498462919],[-74.0087698952117,40.208746816179]]}},{"type":"Feature","id":58987,"properties":{"OBJECTID":58987,"PRIMENAME":"Fletcher Lake Avenue","ELEVTYP_F":0,"ELEVTYP_T":0},"geometry":{"type":"LineString","coordinates":[[-74.0139208680756,40.2045598650925],[-74.0138625616446,40.2047778406435],[-74.0137691962735,40.2051188485002],[-74.0137201033242,40.2052981544484]]}},{"type":"Feature","id":59071,"properties":{"OBJECTID":59071,"PRIMENAME":"Benson Avenue","ELEVTYP_F":0,"ELEVTYP_T":0},"geometry":{"type":"LineString","coordinates":[[-74.0144383194753,40.2084418789123],[-74.0144157168251,40.2085033873736],[-74.0142710818627,40.2088967516609]]}},{"type":"Feature","id":60435,"properties":{"OBJECTID":60435,"PRIMENAME":"Pennsylvania Avenue","ELEVTYP_F":0,"ELEVTYP_T":0},"geometry":{"type":"LineString","coordinates":[[-74.0114789741568,40.2073770343993],[-74.0115688092864,40.2071277921617]]}},{"type":"Feature","id":62014,"properties":{"OBJECTID":62014,"PRIMENAME":"10th Avenue","ELEVTYP_F":0,"ELEVTYP_T":0},"geometry":{"type":"LineString","coordinates":[[-74.0184043439333,40.2074003499647],[-74.0181418424528,40.2073594451309]]}},{"type":"Feature","id":65690,"properties":{"OBJECTID":65690,"PRIMENAME":"McCabe Avenue","ELEVTYP_F":0,"ELEVTYP_T":0},"geometry":{"type":"LineString","coordinates":[[-74.0154937614915,40.2048126814214],[-74.0166500537523,40.2049985000855],[-74.0171114063979,40.2050726360846],[-74.0172476288218,40.2050945069712]]}},{"type":"Feature","id":65810,"properties":{"OBJECTID":65810,"PRIMENAME":"Madison Avenue","ELEVTYP_F":0,"ELEVTYP_T":0},"geometry":{"type":"LineString","coordinates":[[-74.011621232686,40.2069823449096],[-74.0116390827511,40.2069148562813],[-74.0116533634757,40.2068608662796],[-74.0117632205741,40.2064456972926]]}},{"type":"Feature","id":71068,"properties":{"OBJECTID":71068,"PRIMENAME":"Ocean Avenue","ELEVTYP_F":0,"ELEVTYP_T":0},"geometry":{"type":"LineString","coordinates":[[-74.0054139485198,40.2074584263258],[-74.0053505506839,40.207658586501],[-74.0052424307472,40.2079965591685],[-74.0052419802498,40.2080585180751],[-74.0052575860238,40.2081033391683]]}},{"type":"Feature","id":72558,"properties":{"OBJECTID":72558,"PRIMENAME":"Atlantic Avenue","ELEVTYP_F":0,"ELEVTYP_T":0},"geometry":{"type":"LineString","coordinates":[[-74.0169499083429,40.1973119416364],[-74.0174378799219,40.1964308541744]]}},{"type":"Feature","id":72823,"properties":{"OBJECTID":72823,"PRIMENAME":"Brinley Avenue","ELEVTYP_F":0,"ELEVTYP_T":0},"geometry":{"type":"LineString","coordinates":[[-74.0109614667001,40.2019727342544],[-74.0090250677562,40.2016624770618]]}},{"type":"Feature","id":72877,"properties":{"OBJECTID":72877,"PRIMENAME":"4th Avenue","ELEVTYP_F":0,"ELEVTYP_T":0},"geometry":{"type":"LineString","coordinates":[[-74.0134404367647,40.200234890577],[-74.011684295074,40.1999501696367],[-74.0115146771952,40.1999240334096]]}},{"type":"Feature","id":73958,"properties":{"OBJECTID":73958,"PRIMENAME":"Memorial Drive","ELEVTYP_F":0,"ELEVTYP_T":0},"geometry":{"type":"LineString","coordinates":[[-74.0198154182815,40.2020155154958],[-74.0198477624541,40.2019273071165],[-74.0200446041866,40.201390487165],[-74.0200803920749,40.2012909003702],[-74.0200807201072,40.2012900226728]]}},{"type":"Feature","id":74394,"properties":{"OBJECTID":74394,"PRIMENAME":"Ocean Avenue","ELEVTYP_F":0,"ELEVTYP_T":0},"geometry":{"type":"LineString","coordinates":[[-74.0079485414963,40.1993671536279],[-74.0078450248715,40.1996813197042],[-74.0077502853942,40.199988768843],[-74.0076298189118,40.200379704455]]}},{"type":"Feature","id":74681,"properties":{"OBJECTID":74681,"PRIMENAME":"Park Place","ELEVTYP_F":0,"ELEVTYP_T":0},"geometry":{"type":"LineString","coordinates":[[-74.0135271934555,40.2060087500621],[-74.0132324620138,40.2059619397476],[-74.0119457846737,40.205757380653]]}},{"type":"Feature","id":74783,"properties":{"OBJECTID":74783,"PRIMENAME":"Madison Avenue","ELEVTYP_F":0,"ELEVTYP_T":0},"geometry":{"type":"LineString","coordinates":[[-74.0117632205741,40.2064456972926],[-74.0119216918557,40.2058468023184],[-74.0119457846737,40.205757380653]]}},{"type":"Feature","id":75921,"properties":{"OBJECTID":75921,"PRIMENAME":"2nd Avenue","ELEVTYP_F":0,"ELEVTYP_T":0},"geometry":{"type":"LineString","coordinates":[[-74.0120703344647,40.1978887630965],[-74.0112868189105,40.1976454914976],[-74.0106396732882,40.1974445643948],[-74.0102096466443,40.1973110447421]]}},{"type":"Feature","id":76386,"properties":{"OBJECTID":76386,"PRIMENAME":"Evergreen Avenue","ELEVTYP_F":0,"ELEVTYP_T":0},"geometry":{"type":"LineString","coordinates":[[-74.0164914062101,40.1981398372909],[-74.0170787178786,40.1983210599753]]}},{"type":"Feature","id":76764,"properties":{"OBJECTID":76764,"PRIMENAME":"Lake Terrace","ELEVTYP_F":0,"ELEVTYP_T":0},"geometry":{"type":"LineString","coordinates":[[-74.009703681579,40.206615104799],[-74.0098585095976,40.2066340441268],[-74.0102311707613,40.2066785024665],[-74.0106906639182,40.2067471827897],[-74.0109513682014,40.2067959417779],[-74.0112429822967,40.2068734090263],[-74.011621232686,40.2069823449096]]}},{"type":"Feature","id":77347,"properties":{"OBJECTID":77347,"PRIMENAME":"Beach Avenue","ELEVTYP_F":0,"ELEVTYP_T":0},"geometry":{"type":"LineString","coordinates":[[-74.0080643098196,40.2052684929796],[-74.0080980166614,40.2051424637041]]}},{"type":"Feature","id":77463,"properties":{"OBJECTID":77463,"PRIMENAME":"Hammond Avenue","ELEVTYP_F":0,"ELEVTYP_T":0},"geometry":{"type":"LineString","coordinates":[[-74.0161830305708,40.2019965974095],[-74.0161956637024,40.2018612538033],[-74.0162082746438,40.2017594304564]]}},{"type":"Feature","id":77634,"properties":{"OBJECTID":77634,"PRIMENAME":"Brinley Avenue","ELEVTYP_F":0,"ELEVTYP_T":0},"geometry":{"type":"LineString","coordinates":[[-74.0128867110003,40.2022783006832],[-74.0113585258038,40.2020363439643],[-74.0109614667001,40.2019727342544]]}},{"type":"Feature","id":77897,"properties":{"OBJECTID":77897,"PRIMENAME":"Stockton Avenue","ELEVTYP_F":0,"ELEVTYP_T":0},"geometry":{"type":"LineString","coordinates":[[-74.0135094882506,40.2087357295218],[-74.0142710818627,40.2088967516609]]}},{"type":"Feature","id":78199,"properties":{"OBJECTID":78199,"PRIMENAME":"Madison Avenue","ELEVTYP_F":0,"ELEVTYP_T":0},"geometry":{"type":"LineString","coordinates":[[-74.0128867110003,40.2022783006832],[-74.0130262765036,40.2017669524741],[-74.0131642394438,40.2012591378551]]}},{"type":"Feature","id":78376,"properties":{"OBJECTID":78376,"PRIMENAME":"Bradley Boulevard","ELEVTYP_F":0,"ELEVTYP_T":0},"geometry":{"type":"LineString","coordinates":[[-74.0104834665391,40.1962776249527],[-74.0105004514217,40.1962057428293],[-74.0105038532437,40.1961878824376],[-74.0105142174046,40.1961334643056],[-74.0105654934285,40.1961119109131],[-74.0106273140119,40.1961028106593],[-74.0107774840785,40.1960939198502],[-74.0121388603079,40.196024855963],[-74.0125785449459,40.1959904712528]]}},{"type":"Feature","id":78427,"properties":{"OBJECTID":78427,"PRIMENAME":"7th Avenue","ELEVTYP_F":0,"ELEVTYP_T":0},"geometry":{"type":"LineString","coordinates":[[-74.0188480684531,40.2042800349495],[-74.0189918158657,40.2043014153738]]}},{"type":"Feature","id":78866,"properties":{"OBJECTID":78866,"PRIMENAME":"11th Avenue","ELEVTYP_F":0,"ELEVTYP_T":0},"geometry":{"type":"LineString","coordinates":[[-74.0176948136464,40.2083948229204],[-74.0179046798928,40.2084291346083],[-74.0201515286126,40.2087964236441],[-74.0202552964982,40.2088113212498]]}},{"type":"Feature","id":78941,"properties":{"OBJECTID":78941,"PRIMENAME":"Cliff Avenue","ELEVTYP_F":0,"ELEVTYP_T":0},"geometry":{"type":"LineString","coordinates":[[-74.0057801464554,40.2063026184596],[-74.0059631859353,40.2063315115759],[-74.0063396018505,40.2063908739685],[-74.0064228245203,40.2064039976824]]}},{"type":"Feature","id":79665,"properties":{"OBJECTID":79665,"PRIMENAME":"Fletcher Lake Avenue","ELEVTYP_F":0,"ELEVTYP_T":0},"geometry":{"type":"LineString","coordinates":[[-74.013340447906,40.2066981495327],[-74.0131713489558,40.2073224781017],[-74.0131556984912,40.2074181663577]]}},{"type":"Feature","id":79790,"properties":{"OBJECTID":79790,"PRIMENAME":"Brinley Avenue","ELEVTYP_F":0,"ELEVTYP_T":0},"geometry":{"type":"LineString","coordinates":[[-74.0179752976168,40.203089906018],[-74.0178638763688,40.2030719131056],[-74.0160440016117,40.2027780302298]]}},{"type":"Feature","id":80166,"properties":{"OBJECTID":80166,"PRIMENAME":"Beach Avenue","ELEVTYP_F":0,"ELEVTYP_T":0},"geometry":{"type":"LineString","coordinates":[[-74.0098595942602,40.198598737057],[-74.0101324679669,40.1975987239314],[-74.0101553496936,40.1975134702076]]}},{"type":"Feature","id":80533,"properties":{"OBJECTID":80533,"PRIMENAME":"Main Street","ELEVTYP_F":0,"ELEVTYP_T":0},"geometry":{"type":"LineString","coordinates":[[-74.0197416189343,40.1982279822822],[-74.0194453177809,40.1990517032205]]}},{"type":"Feature","id":80985,"properties":{"OBJECTID":80985,"PRIMENAME":"Memorial Drive","ELEVTYP_F":0,"ELEVTYP_T":0},"geometry":{"type":"LineString","coordinates":[[-74.0186243303385,40.2053232926168],[-74.0186878020595,40.2051394040878],[-74.0186924287679,40.2051259996978],[-74.0189918158657,40.2043014153738]]}},{"type":"Feature","id":81878,"properties":{"OBJECTID":81878,"PRIMENAME":"Franklin Avenue","ELEVTYP_F":0,"ELEVTYP_T":0},"geometry":{"type":"LineString","coordinates":[[-74.011790704384,40.2088780542816],[-74.0109938510222,40.2087067631448]]}},{"type":"Feature","id":82558,"properties":{"OBJECTID":82558,"PRIMENAME":"Cliff Avenue","ELEVTYP_F":0,"ELEVTYP_T":0},"geometry":{"type":"LineString","coordinates":[[-74.0064228245203,40.2064039976824],[-74.0076085826394,40.2065911130621],[-74.0077011395797,40.2066057544657]]}},{"type":"Feature","id":84169,"properties":{"OBJECTID":84169,"PRIMENAME":"Pilgrim Pathway","ELEVTYP_F":0,"ELEVTYP_T":0},"geometry":{"type":"LineString","coordinates":[[-74.0087698952117,40.208746816179],[-74.0089280283677,40.2083181845095],[-74.0089466616568,40.2082666253236]]}},{"type":"Feature","id":85188,"properties":{"OBJECTID":85188,"PRIMENAME":"Hammond Avenue","ELEVTYP_F":0,"ELEVTYP_T":0},"geometry":{"type":"LineString","coordinates":[[-74.0166986549626,40.1996879853981],[-74.0167468600817,40.1995091129151],[-74.0167913816147,40.1993499092529]]}},{"type":"Feature","id":85318,"properties":{"OBJECTID":85318,"PRIMENAME":"Memorial Drive","ELEVTYP_F":0,"ELEVTYP_T":0},"geometry":{"type":"LineString","coordinates":[[-74.0189918158657,40.2043014153738],[-74.0193091967104,40.2034273264172],[-74.019352117366,40.2033067135692]]}},{"type":"Feature","id":89303,"properties":{"OBJECTID":89303,"PRIMENAME":"4th Avenue","ELEVTYP_F":0,"ELEVTYP_T":0},"geometry":{"type":"LineString","coordinates":[[-74.0150247703618,40.2004857024384],[-74.0136461292971,40.2002682314266],[-74.0134404367647,40.200234890577]]}},{"type":"Feature","id":89427,"properties":{"OBJECTID":89427,"PRIMENAME":"Field Street","ELEVTYP_F":0,"ELEVTYP_T":0},"geometry":{"type":"LineString","coordinates":[[-74.020624259799,40.1957706522901],[-74.0207398222093,40.1957957561061],[-74.0214783094627,40.1959560597756]]}},{"type":"Feature","id":90946,"properties":{"OBJECTID":90946,"PRIMENAME":"Brinley Avenue","ELEVTYP_F":0,"ELEVTYP_T":0},"geometry":{"type":"LineString","coordinates":[[-74.0192078546665,40.2032840633041],[-74.0181198494983,40.2031132381299],[-74.0179752976168,40.203089906018]]}},{"type":"Feature","id":91696,"properties":{"OBJECTID":91696,"PRIMENAME":"Pennsylvania Avenue","ELEVTYP_F":0,"ELEVTYP_T":0},"geometry":{"type":"LineString","coordinates":[[-74.0109938510222,40.2087067631448],[-74.0111681998866,40.208236963218]]}},{"type":"Feature","id":96214,"properties":{"OBJECTID":96214,"PRIMENAME":"Central Avenue","ELEVTYP_F":0,"ELEVTYP_T":0},"geometry":{"type":"LineString","coordinates":[[-74.0106824069169,40.2029905944774],[-74.0105781943488,40.2033675448787],[-74.0104079901496,40.2039990019974]]}},{"type":"Feature","id":98068,"properties":{"OBJECTID":98068,"PRIMENAME":"3rd Avenue","ELEVTYP_F":0,"ELEVTYP_T":0},"geometry":{"type":"LineString","coordinates":[[-74.0192400109113,40.2000890527945],[-74.0200361089843,40.2002138886523]]}},{"type":"Feature","id":99129,"properties":{"OBJECTID":99129,"PRIMENAME":"Riley Court","ELEVTYP_F":0,"ELEVTYP_T":0},"geometry":{"type":"LineString","coordinates":[[-74.0138042109885,40.2079454949],[-74.0139887279045,40.207987381839],[-74.0141634944794,40.208027011908],[-74.0143319641217,40.2080573437738],[-74.0143880838703,40.2080605442295],[-74.0144279249575,40.2080570600355],[-74.0144766884319,40.2080482605567]]}},{"type":"Feature","id":99930,"properties":{"OBJECTID":99930,"PRIMENAME":"Brinley Avenue","ELEVTYP_F":0,"ELEVTYP_T":0},"geometry":{"type":"LineString","coordinates":[[-74.019352117366,40.2033067135692],[-74.0192078546665,40.2032840633041]]}},{"type":"Feature","id":99950,"properties":{"OBJECTID":99950,"PRIMENAME":"Hammond Avenue","ELEVTYP_F":0,"ELEVTYP_T":0},"geometry":{"type":"LineString","coordinates":[[-74.0151045750556,40.2062593388512],[-74.0152964145479,40.2055459089191]]}},{"type":"Feature","id":101652,"properties":{"OBJECTID":101652,"PRIMENAME":"Evergreen Avenue","ELEVTYP_F":0,"ELEVTYP_T":0},"geometry":{"type":"LineString","coordinates":[[-74.0104834665391,40.1962776249527],[-74.0112365827353,40.1965119578738],[-74.0123478379345,40.1968521976188]]}},{"type":"Feature","id":102619,"properties":{"OBJECTID":102619,"PRIMENAME":"Beach Avenue","ELEVTYP_F":0,"ELEVTYP_T":0},"geometry":{"type":"LineString","coordinates":[[-74.0082897784204,40.2044247902597],[-74.008331581399,40.2042683507481],[-74.008485858715,40.2036934634264]]}},{"type":"Feature","id":107381,"properties":{"OBJECTID":107381,"PRIMENAME":"2nd Avenue","ELEVTYP_F":0,"ELEVTYP_T":0},"geometry":{"type":"LineString","coordinates":[[-74.0139183191262,40.1984648616498],[-74.0122704428029,40.1979509080169],[-74.0120703344647,40.1978887630965]]}},{"type":"Feature","id":108183,"properties":{"OBJECTID":108183,"PRIMENAME":"Atkins Avenue","ELEVTYP_F":0,"ELEVTYP_T":0},"geometry":{"type":"LineString","coordinates":[[-74.0209388484057,40.2056868947284],[-74.0207665875829,40.2061706373438],[-74.0206017464443,40.2066274784746],[-74.0205774101913,40.2066969978759]]}},{"type":"Feature","id":110542,"properties":{"OBJECTID":110542,"PRIMENAME":"Inskip Avenue","ELEVTYP_F":0,"ELEVTYP_T":0},"geometry":{"type":"LineString","coordinates":[[-74.0136751263139,40.208280136015],[-74.0129170837102,40.20811948156]]}},{"type":"Feature","id":111834,"properties":{"OBJECTID":111834,"PRIMENAME":"2nd Avenue","ELEVTYP_F":0,"ELEVTYP_T":0},"geometry":{"type":"LineString","coordinates":[[-74.0102096466443,40.1973110447421],[-74.0095792390638,40.1971152830427],[-74.0094317217818,40.1970694730024],[-74.008909257406,40.1969072260655],[-74.0087358371896,40.1968533694133]]}},{"type":"Feature","id":113824,"properties":{"OBJECTID":113824,"PRIMENAME":"Fletcher Lake Avenue","ELEVTYP_F":0,"ELEVTYP_T":0},"geometry":{"type":"LineString","coordinates":[[-74.0147480133784,40.2015013587225],[-74.0144946694519,40.2024308287686],[-74.014467731023,40.2025282271578]]}},{"type":"Feature","id":113892,"properties":{"OBJECTID":113892,"PRIMENAME":"Beach Avenue","ELEVTYP_F":0,"ELEVTYP_T":0},"geometry":{"type":"LineString","coordinates":[[-74.0077011395797,40.2066057544657],[-74.0078818944972,40.2059407442327]]}},{"type":"Feature","id":115429,"properties":{"OBJECTID":115429,"PRIMENAME":"Ocean Park Avenue","ELEVTYP_F":0,"ELEVTYP_T":0},"geometry":{"type":"LineString","coordinates":[[-74.0102100466246,40.2047332621929],[-74.008835719721,40.20451358336],[-74.0082897784204,40.2044247902597]]}},{"type":"Feature","id":116577,"properties":{"OBJECTID":116577,"PRIMENAME":"9th Avenue","ELEVTYP_F":0,"ELEVTYP_T":0},"geometry":{"type":"LineString","coordinates":[[-74.0205774101913,40.2066969978759],[-74.0212993297108,40.2068115248323],[-74.022831618867,40.2070502923729],[-74.0233307546142,40.2071306163563]]}},{"type":"Feature","id":117106,"properties":{"OBJECTID":117106,"PRIMENAME":"Pacific Avenue","ELEVTYP_F":0,"ELEVTYP_T":0},"geometry":{"type":"LineString","coordinates":[[-74.0185961509227,40.1978521477475],[-74.0182018320027,40.1985571922094],[-74.0181491829589,40.1986513276613]]}},{"type":"Feature","id":117226,"properties":{"OBJECTID":117226,"PRIMENAME":"3rd Avenue","ELEVTYP_F":0,"ELEVTYP_T":0},"geometry":{"type":"LineString","coordinates":[[-74.0190781167337,40.2000636730553],[-74.0192400109113,40.2000890527945]]}},{"type":"Feature","id":118815,"properties":{"OBJECTID":118815,"PRIMENAME":"Burlington Avenue","ELEVTYP_F":0,"ELEVTYP_T":0},"geometry":{"type":"LineString","coordinates":[[-74.0174378799219,40.1964308541744],[-74.0178740217804,40.1965731459443],[-74.019090281549,40.1969686363563]]}},{"type":"Feature","id":118853,"properties":{"OBJECTID":118853,"PRIMENAME":"Delaware Avenue","ELEVTYP_F":0,"ELEVTYP_T":0},"geometry":{"type":"LineString","coordinates":[[-74.0129170837102,40.20811948156],[-74.0127512966913,40.2085753741841]]}},{"type":"Feature","id":119430,"properties":{"OBJECTID":119430,"PRIMENAME":"Fletcher Lake Avenue","ELEVTYP_F":0,"ELEVTYP_T":0},"geometry":{"type":"LineString","coordinates":[[-74.0141888853972,40.2035583134486],[-74.0139208680756,40.2045598650925]]}},{"type":"Feature","id":120278,"properties":{"OBJECTID":120278,"PRIMENAME":"Stockton Avenue","ELEVTYP_F":0,"ELEVTYP_T":0},"geometry":{"type":"LineString","coordinates":[[-74.0119612885874,40.2084083192487],[-74.0127512966913,40.2085753741841]]}},{"type":"Feature","id":128881,"properties":{"OBJECTID":128881,"PRIMENAME":"Park Place","ELEVTYP_F":0,"ELEVTYP_T":0},"geometry":{"type":"LineString","coordinates":[[-74.0151045750556,40.2062593388512],[-74.0135271934555,40.2060087500621]]}},{"type":"Feature","id":129691,"properties":{"OBJECTID":129691,"PRIMENAME":"Bradley Boulevard","ELEVTYP_F":0,"ELEVTYP_T":0},"geometry":{"type":"LineString","coordinates":[[-74.0146282553619,40.1958077657321],[-74.0153042719049,40.195734828911]]}},{"type":"Feature","id":130245,"properties":{"OBJECTID":130245,"PRIMENAME":"10th Avenue","ELEVTYP_F":0,"ELEVTYP_T":0},"geometry":{"type":"LineString","coordinates":[[-74.0230338702383,40.2081350897688],[-74.0210921579201,40.2078194400314],[-74.0203717160184,40.2077071407674]]}},{"type":"Feature","id":132119,"properties":{"OBJECTID":132119,"PRIMENAME":"Central Avenue","ELEVTYP_F":0,"ELEVTYP_T":0},"geometry":{"type":"LineString","coordinates":[[-74.0083676702832,40.2076288336021],[-74.0082051012165,40.2077145913526],[-74.0078740434366,40.2079324205764],[-74.0077625053778,40.2080120250871]]}},{"type":"Feature","id":132339,"properties":{"OBJECTID":132339,"PRIMENAME":"Brinley Avenue","ELEVTYP_F":0,"ELEVTYP_T":0},"geometry":{"type":"LineString","coordinates":[[-74.0160440016117,40.2027780302298],[-74.0158474543743,40.2027463242802],[-74.014467731023,40.2025282271578]]}},{"type":"Feature","id":134214,"properties":{"OBJECTID":134214,"PRIMENAME":"Ocean Avenue","ELEVTYP_F":0,"ELEVTYP_T":0},"geometry":{"type":"LineString","coordinates":[[-74.0062036805273,40.2049656754472],[-74.0061903437513,40.2050075385566],[-74.0061652823341,40.2050866593034],[-74.005990707988,40.2056377933706]]}},{"type":"Feature","id":143034,"properties":{"OBJECTID":143034,"PRIMENAME":"Monmouth Avenue","ELEVTYP_F":0,"ELEVTYP_T":0},"geometry":{"type":"LineString","coordinates":[[-74.0197416189343,40.1982279822822],[-74.019615356173,40.198186554291],[-74.0185961509227,40.1978521477475]]}},{"type":"Feature","id":146608,"properties":{"OBJECTID":146608,"PRIMENAME":"2nd Avenue","ELEVTYP_F":0,"ELEVTYP_T":0},"geometry":{"type":"LineString","coordinates":[[-74.0101553496936,40.1975134702076],[-74.0105784891921,40.1975969438257],[-74.0110664985959,40.1976932110647],[-74.0112509906458,40.1977290641695],[-74.0120703344647,40.1978887630965]]}},{"type":"Feature","id":146993,"properties":{"OBJECTID":146993,"PRIMENAME":"Central Avenue","ELEVTYP_F":0,"ELEVTYP_T":0},"geometry":{"type":"LineString","coordinates":[[-74.0093357516325,40.2071908731713],[-74.0093152798431,40.207204567581],[-74.0091593380117,40.2072753928066],[-74.0086980521881,40.2074545673973],[-74.0083676702832,40.2076288336021]]}},{"type":"Feature","id":147030,"properties":{"OBJECTID":147030,"PRIMENAME":"Atkins Avenue","ELEVTYP_F":0,"ELEVTYP_T":0},"geometry":{"type":"LineString","coordinates":[[-74.0205774101913,40.2066969978759],[-74.0204748822465,40.2069891900064],[-74.0204429977219,40.2071034523383],[-74.0204168017925,40.2072844483371],[-74.0203717160184,40.2077071407674]]}},{"type":"Feature","id":147190,"properties":{"OBJECTID":147190,"PRIMENAME":"10th Avenue","ELEVTYP_F":0,"ELEVTYP_T":0},"geometry":{"type":"LineString","coordinates":[[-74.0203717160184,40.2077071407674],[-74.0184272902101,40.2074039256266],[-74.0184043439333,40.2074003499647]]}},{"type":"Feature","id":147681,"properties":{"OBJECTID":147681,"PRIMENAME":"Lake Avenue","ELEVTYP_F":0,"ELEVTYP_T":0},"geometry":{"type":"LineString","coordinates":[[-74.0131556984912,40.2074181663577],[-74.0131422551185,40.2075004132526],[-74.0130453802425,40.207766754274]]}},{"type":"Feature","id":148780,"properties":{"OBJECTID":148780,"PRIMENAME":"Bradley Boulevard","ELEVTYP_F":0,"ELEVTYP_T":0},"geometry":{"type":"LineString","coordinates":[[-74.0153042719049,40.195734828911],[-74.0164676387154,40.1956092943613],[-74.0167907715055,40.195573277317],[-74.0171269008168,40.1955358103557],[-74.0172076977861,40.1955361473443],[-74.017307076739,40.1955460872882],[-74.0176170981826,40.195652221623],[-74.0178282931623,40.1957258777433]]}},{"type":"Feature","id":149145,"properties":{"OBJECTID":149145,"PRIMENAME":"Atlantic Avenue","ELEVTYP_F":0,"ELEVTYP_T":0},"geometry":{"type":"LineString","coordinates":[[-74.0164914062101,40.1981398372909],[-74.0165333660063,40.198064105548],[-74.0169499083429,40.1973119416364]]}},{"type":"Feature","id":149168,"properties":{"OBJECTID":149168,"PRIMENAME":"Monmouth Avenue","ELEVTYP_F":0,"ELEVTYP_T":0},"geometry":{"type":"LineString","coordinates":[[-74.0185961509227,40.1978521477475],[-74.0169499083429,40.1973119416364]]}},{"type":"Feature","id":149476,"properties":{"OBJECTID":149476,"PRIMENAME":"Lareine Avenue","ELEVTYP_F":0,"ELEVTYP_T":0},"geometry":{"type":"LineString","coordinates":[[-74.0141888853972,40.2035583134486],[-74.0156720855911,40.2038035851528],[-74.0157627819026,40.2038179376235]]}},{"type":"Feature","id":149550,"properties":{"OBJECTID":149550,"PRIMENAME":"Evergreen Avenue","ELEVTYP_F":0,"ELEVTYP_T":0},"geometry":{"type":"LineString","coordinates":[[-74.0123478379345,40.1968521976188],[-74.0140459453019,40.1973721524073],[-74.014201218718,40.1974212027245]]}},{"type":"Feature","id":150254,"properties":{"OBJECTID":150254,"PRIMENAME":"Monmouth Avenue","ELEVTYP_F":0,"ELEVTYP_T":0},"geometry":{"type":"LineString","coordinates":[[-74.0144544919669,40.1964642526333],[-74.0133650904454,40.196106253775],[-74.0129292894617,40.1959630394816]]}},{"type":"Feature","id":152382,"properties":{"OBJECTID":152382,"PRIMENAME":"Inskip Avenue","ELEVTYP_F":0,"ELEVTYP_T":0},"geometry":{"type":"LineString","coordinates":[[-74.0121269751554,40.207952042741],[-74.0116603496188,40.2078531402906],[-74.0113341929331,40.2077787670997]]}},{"type":"Feature","id":153055,"properties":{"OBJECTID":153055,"PRIMENAME":"Central Avenue","ELEVTYP_F":0,"ELEVTYP_T":0},"geometry":{"type":"LineString","coordinates":[[-74.0102100466246,40.2047332621929],[-74.0101102497064,40.2051034216491],[-74.010041749256,40.2053575077906],[-74.0100161565445,40.205450819923]]}},{"type":"Feature","id":153212,"properties":{"OBJECTID":153212,"PRIMENAME":"Madison Avenue","ELEVTYP_F":0,"ELEVTYP_T":0},"geometry":{"type":"LineString","coordinates":[[-74.0119457846737,40.205757380653],[-74.0121196400989,40.2051119079587],[-74.0121379049719,40.2050440949349]]}},{"type":"Feature","id":153588,"properties":{"OBJECTID":153588,"PRIMENAME":"Bradley Boulevard","ELEVTYP_F":0,"ELEVTYP_T":0},"geometry":{"type":"LineString","coordinates":[[-74.0194481799469,40.1963286372674],[-74.0201834424145,40.1966065701502],[-74.0203104080502,40.1966545618522]]}},{"type":"Feature","id":155247,"properties":{"OBJECTID":155247,"PRIMENAME":"Delaware Avenue","ELEVTYP_F":0,"ELEVTYP_T":0},"geometry":{"type":"LineString","coordinates":[[-74.0127512966913,40.2085753741841],[-74.0125792249258,40.2090484807321]]}},{"type":"Feature","id":156077,"properties":{"OBJECTID":156077,"PRIMENAME":"Pilgrim Pathway","ELEVTYP_F":0,"ELEVTYP_T":0},"geometry":{"type":"LineString","coordinates":[[-74.0089466616568,40.2082666253236],[-74.009118410391,40.2077918484326]]}},{"type":"Feature","id":157359,"properties":{"OBJECTID":157359,"PRIMENAME":"Lake Terrace","ELEVTYP_F":0,"ELEVTYP_T":0},"geometry":{"type":"LineString","coordinates":[[-74.0076222376036,40.2068959766612],[-74.007992424409,40.2068072591794]]}},{"type":"Feature","id":158852,"properties":{"OBJECTID":158852,"PRIMENAME":"Main Street","ELEVTYP_F":0,"ELEVTYP_T":0},"geometry":{"type":"LineString","coordinates":[[-74.020624259799,40.1957706522901],[-74.0205326800933,40.1960356846188]]}},{"type":"Feature","id":158856,"properties":{"OBJECTID":158856,"PRIMENAME":"Memorial Drive","ELEVTYP_F":0,"ELEVTYP_T":0},"geometry":{"type":"LineString","coordinates":[[-74.019352117366,40.2033067135692],[-74.0196833879107,40.2023755793095],[-74.0197139431006,40.2022922506039]]}},{"type":"Feature","id":159065,"properties":{"OBJECTID":159065,"PRIMENAME":"Lareine Avenue","ELEVTYP_F":0,"ELEVTYP_T":0},"geometry":{"type":"LineString","coordinates":[[-74.0176119418367,40.2041038354929],[-74.0178205110446,40.2041271879471],[-74.0188480684531,40.2042800349495]]}},{"type":"Feature","id":159119,"properties":{"OBJECTID":159119,"PRIMENAME":"Central Avenue","ELEVTYP_F":0,"ELEVTYP_T":0},"geometry":{"type":"LineString","coordinates":[[-74.0112385973683,40.2009431157383],[-74.0109614667001,40.2019727342544]]}},{"type":"Feature","id":164793,"properties":{"OBJECTID":164793,"PRIMENAME":"Beach Avenue","ELEVTYP_F":0,"ELEVTYP_T":0},"geometry":{"type":"LineString","coordinates":[[-74.0076222376036,40.2068959766612],[-74.0076545345643,40.2067771901665],[-74.0077011395797,40.2066057544657]]}},{"type":"Feature","id":165652,"properties":{"OBJECTID":165652,"PRIMENAME":"Main Street","ELEVTYP_F":0,"ELEVTYP_T":0},"geometry":{"type":"LineString","coordinates":[[-74.0179752976168,40.203089906018],[-74.0178951084523,40.2033261852019],[-74.0176119418367,40.2041038354929]]}},{"type":"Feature","id":166461,"properties":{"OBJECTID":166461,"PRIMENAME":"Inskip Avenue","ELEVTYP_F":0,"ELEVTYP_T":0},"geometry":{"type":"LineString","coordinates":[[-74.0113341929331,40.2077787670997],[-74.0106177170121,40.2076151981622],[-74.010555945907,40.2076011008704]]}},{"type":"Feature","id":166922,"properties":{"OBJECTID":166922,"PRIMENAME":"Franklin Avenue","ELEVTYP_F":0,"ELEVTYP_T":0},"geometry":{"type":"LineString","coordinates":[[-74.0089466616568,40.2082666253236],[-74.0079477981844,40.2080518777212],[-74.0077625053778,40.2080120250871]]}},{"type":"Feature","id":167014,"properties":{"OBJECTID":167014,"PRIMENAME":"11th Avenue","ELEVTYP_F":0,"ELEVTYP_T":0},"geometry":{"type":"LineString","coordinates":[[-74.0202552964982,40.2088113212498],[-74.0205512934214,40.208853864154],[-74.0207087765321,40.2088731016971],[-74.0208360692963,40.2088829344328],[-74.0211331484904,40.208888803154],[-74.0221516037601,40.208911625181],[-74.0232354017053,40.2089196355433]]}},{"type":"Feature","id":169607,"properties":{"OBJECTID":169607,"PRIMENAME":"New Jersey Avenue","ELEVTYP_F":0,"ELEVTYP_T":0},"geometry":{"type":"LineString","coordinates":[[-74.0119612885874,40.2084083192487],[-74.0121068126059,40.2080075220305],[-74.0121269751554,40.207952042741]]}},{"type":"Feature","id":170378,"properties":{"OBJECTID":170378,"PRIMENAME":"5th Avenue","ELEVTYP_F":0,"ELEVTYP_T":0},"geometry":{"type":"LineString","coordinates":[[-74.0076298189118,40.200379704455],[-74.0077962881866,40.20040555918],[-74.0093222047467,40.2006425284391]]}},{"type":"Feature","id":171118,"properties":{"OBJECTID":171118,"PRIMENAME":"Pennsylvania Avenue","ELEVTYP_F":0,"ELEVTYP_T":0},"geometry":{"type":"LineString","coordinates":[[-74.0108171262406,40.2091828403175],[-74.0109938510222,40.2087067631448]]}},{"type":"Feature","id":172257,"properties":{"OBJECTID":172257,"PRIMENAME":"South Main Street","ELEVTYP_F":0,"ELEVTYP_T":0},"geometry":{"type":"LineString","coordinates":[[-74.0159371732146,40.2087266352776],[-74.0158951129058,40.2088413842512],[-74.0157594549643,40.209211472233]]}},{"type":"Feature","id":173896,"properties":{"OBJECTID":173896,"PRIMENAME":"3rd Avenue","ELEVTYP_F":0,"ELEVTYP_T":0},"geometry":{"type":"LineString","coordinates":[[-74.0186333817974,40.1999940768241],[-74.0189433657311,40.2000425237679],[-74.0190781167337,40.2000636730553]]}},{"type":"Feature","id":174029,"properties":{"OBJECTID":174029,"PRIMENAME":"Memorial Drive","ELEVTYP_F":0,"ELEVTYP_T":0},"geometry":{"type":"LineString","coordinates":[[-74.0200807201072,40.2012900226728],[-74.0202601705523,40.2007908548977],[-74.0204369462089,40.2002848405045]]}},{"type":"Feature","id":174511,"properties":{"OBJECTID":174511,"PRIMENAME":"Memorial Drive","ELEVTYP_F":0,"ELEVTYP_T":0},"geometry":{"type":"LineString","coordinates":[[-74.0207229839644,40.1994433404342],[-74.0207810070827,40.1992059234701],[-74.0208699156557,40.1989393975305],[-74.0210158162371,40.1985205809203],[-74.0211361296261,40.1982017771659],[-74.0213865264006,40.1975148869063],[-74.0214466743984,40.1973498898007],[-74.0218648969361,40.1962125272194],[-74.0220994473684,40.195555785531],[-74.0223972106981,40.1947515547527],[-74.0227301386521,40.1938274450651]]}},{"type":"Feature","id":175372,"properties":{"OBJECTID":175372,"PRIMENAME":"Beach Avenue","ELEVTYP_F":0,"ELEVTYP_T":0},"geometry":{"type":"LineString","coordinates":[[-74.0080980166614,40.2051424637041],[-74.0081107154013,40.2050949423398],[-74.0082897784204,40.2044247902597]]}},{"type":"Feature","id":176080,"properties":{"OBJECTID":176080,"PRIMENAME":"Newark Avenue","ELEVTYP_F":0,"ELEVTYP_T":0},"geometry":{"type":"LineString","coordinates":[[-74.0079108065079,40.2058342689573],[-74.0080055445627,40.2058493039768],[-74.0098291027083,40.2061385110615]]}},{"type":"Feature","id":177770,"properties":{"OBJECTID":177770,"PRIMENAME":"Pennsylvania Avenue","ELEVTYP_F":0,"ELEVTYP_T":0},"geometry":{"type":"LineString","coordinates":[[-74.0115688092864,40.2071277921617],[-74.011621232686,40.2069823449096]]}},{"type":"Feature","id":180166,"properties":{"OBJECTID":180166,"PRIMENAME":"Madison Avenue","ELEVTYP_F":0,"ELEVTYP_T":0},"geometry":{"type":"LineString","coordinates":[[-74.0139183191262,40.1984648616498],[-74.0140476827834,40.1980012632647],[-74.014201218718,40.1974212027245]]}},{"type":"Feature","id":181778,"properties":{"OBJECTID":181778,"PRIMENAME":"Ocean Avenue","ELEVTYP_F":0,"ELEVTYP_T":0},"geometry":{"type":"LineString","coordinates":[[-74.0087358371896,40.1968533694133],[-74.0086593972866,40.1970824943617],[-74.008619987551,40.1972106127578]]}},{"type":"Feature","id":184646,"properties":{"OBJECTID":184646,"PRIMENAME":"Newark Avenue","ELEVTYP_F":0,"ELEVTYP_T":0},"geometry":{"type":"LineString","coordinates":[[-74.005990707988,40.2056377933706],[-74.0061917672455,40.2056700018438],[-74.0063446535586,40.2056944929339],[-74.0077812215114,40.2059246129765],[-74.0078818944972,40.2059407442327]]}},{"type":"Feature","id":186194,"properties":{"OBJECTID":186194,"PRIMENAME":"Main Street","ELEVTYP_F":0,"ELEVTYP_T":0},"geometry":{"type":"LineString","coordinates":[[-74.0167341475901,40.206518167959],[-74.0165555581954,40.2070113483343]]}},{"type":"Feature","id":186554,"properties":{"OBJECTID":186554,"PRIMENAME":"Clark Avenue","ELEVTYP_F":0,"ELEVTYP_T":0},"geometry":{"type":"LineString","coordinates":[[-74.0087698952117,40.208746816179],[-74.0100306309578,40.2090150998508]]}},{"type":"Feature","id":187042,"properties":{"OBJECTID":187042,"PRIMENAME":"Fletcher Lake Avenue","ELEVTYP_F":0,"ELEVTYP_T":0},"geometry":{"type":"LineString","coordinates":[[-74.0150247703618,40.2004857024384],[-74.0147480133784,40.2015013587225]]}},{"type":"Feature","id":188096,"properties":{"OBJECTID":188096,"PRIMENAME":"Franklin Avenue","ELEVTYP_F":0,"ELEVTYP_T":0},"geometry":{"type":"LineString","coordinates":[[-74.0102078338717,40.2085377640554],[-74.0089466616568,40.2082666253236]]}},{"type":"Feature","id":189008,"properties":{"OBJECTID":189008,"PRIMENAME":"5th Avenue","ELEVTYP_F":0,"ELEVTYP_T":0},"geometry":{"type":"LineString","coordinates":[[-74.0161830305708,40.2019965974095],[-74.0163189153575,40.2020047417188],[-74.0182014767944,40.2021174612927],[-74.0183344193534,40.2021113711616]]}},{"type":"Feature","id":189356,"properties":{"OBJECTID":189356,"PRIMENAME":"2nd Avenue","ELEVTYP_F":0,"ELEVTYP_T":0},"geometry":{"type":"LineString","coordinates":[[-74.008619987551,40.1972106127578],[-74.0087949435506,40.1972451215193],[-74.0093546234814,40.197355524503],[-74.0095110041936,40.197386371473],[-74.0101553496936,40.1975134702076]]}},{"type":"Feature","id":190451,"properties":{"OBJECTID":190451,"PRIMENAME":"Lareine Avenue","ELEVTYP_F":0,"ELEVTYP_T":0},"geometry":{"type":"LineString","coordinates":[[-74.0087555162335,40.2026886087267],[-74.0105686160426,40.2029719675685],[-74.0106824069169,40.2029905944774]]}},{"type":"Feature","id":192161,"properties":{"OBJECTID":192161,"PRIMENAME":"2nd Avenue","ELEVTYP_F":0,"ELEVTYP_T":0},"geometry":{"type":"LineString","coordinates":[[-74.0154347289707,40.1989378031488],[-74.0139183191262,40.1984648616498]]}},{"type":"Feature","id":194596,"properties":{"OBJECTID":194596,"PRIMENAME":"3rd Avenue","ELEVTYP_F":0,"ELEVTYP_T":0},"geometry":{"type":"LineString","coordinates":[[-74.0098595942602,40.198598737057],[-74.0110400792943,40.1987845322474],[-74.0117947246149,40.1989046102955]]}},{"type":"Feature","id":194658,"properties":{"OBJECTID":194658,"PRIMENAME":"New York Avenue","ELEVTYP_F":0,"ELEVTYP_T":0},"geometry":{"type":"LineString","coordinates":[[-74.0107132389861,40.207177898659],[-74.0106887767685,40.2072437361785],[-74.010555945907,40.2076011008704]]}},{"type":"Feature","id":194844,"properties":{"OBJECTID":194844,"PRIMENAME":"8th Avenue","ELEVTYP_F":0,"ELEVTYP_T":0},"geometry":{"type":"LineString","coordinates":[[-74.0186243303385,40.2053232926168],[-74.0187673166323,40.2053457941943],[-74.0209388484057,40.2056868947284]]}},{"type":"Feature","id":195224,"properties":{"OBJECTID":195224,"PRIMENAME":"3rd Avenue","ELEVTYP_F":0,"ELEVTYP_T":0},"geometry":{"type":"LineString","coordinates":[[-74.0117947246149,40.1989046102955],[-74.0137139091191,40.1992099446852]]}},{"type":"Feature","id":198506,"properties":{"OBJECTID":198506,"PRIMENAME":"Atkins Avenue","ELEVTYP_F":0,"ELEVTYP_T":0},"geometry":{"type":"LineString","coordinates":[[-74.0203717160184,40.2077071407674],[-74.0203436142748,40.2079704592969],[-74.0202636569246,40.2087327046938],[-74.0202552964982,40.2088113212498]]}},{"type":"Feature","id":199757,"properties":{"OBJECTID":199757,"PRIMENAME":"New York Avenue","ELEVTYP_F":0,"ELEVTYP_T":0},"geometry":{"type":"LineString","coordinates":[[-74.0103829869868,40.2080664312618],[-74.0102078338717,40.2085377640554]]}},{"type":"Feature","id":202054,"properties":{"OBJECTID":202054,"PRIMENAME":"Main Street","ELEVTYP_F":0,"ELEVTYP_T":0},"geometry":{"type":"LineString","coordinates":[[-74.0172476288218,40.2050945069712],[-74.0172336741701,40.2051333488312],[-74.0169898301111,40.205812057608]]}},{"type":"Feature","id":202173,"properties":{"OBJECTID":202173,"PRIMENAME":"Inskip Avenue","ELEVTYP_F":0,"ELEVTYP_T":0},"geometry":{"type":"LineString","coordinates":[[-74.0129170837102,40.20811948156],[-74.0121269751554,40.207952042741]]}},{"type":"Feature","id":202367,"properties":{"OBJECTID":202367,"PRIMENAME":"Fifth Avenue","ELEVTYP_F":0,"ELEVTYP_T":0},"geometry":{"type":"LineString","coordinates":[[-74.0156247706794,40.2016563005157],[-74.0159976987778,40.2017222026474],[-74.0162082746438,40.2017594304564]]}},{"type":"Feature","id":204549,"properties":{"OBJECTID":204549,"PRIMENAME":"West End Avenue","ELEVTYP_F":0,"ELEVTYP_T":0},"geometry":{"type":"LineString","coordinates":[[-74.0195023240577,40.1946578220684],[-74.0197212738148,40.194814468954],[-74.020676620383,40.1954981548285]]}},{"type":"Feature","id":206210,"properties":{"OBJECTID":206210,"PRIMENAME":"Lawrence Avenue","ELEVTYP_F":0,"ELEVTYP_T":0},"geometry":{"type":"LineString","coordinates":[[-74.0153901372791,40.2077700679732],[-74.0153610157512,40.2078469508332],[-74.0152093170405,40.2082477263274],[-74.0151779808825,40.2083351395256]]}},{"type":"Feature","id":207699,"properties":{"OBJECTID":207699,"PRIMENAME":"Central Avenue","ELEVTYP_F":0,"ELEVTYP_T":0},"geometry":{"type":"LineString","coordinates":[[-74.0125785449459,40.1959904712528],[-74.012544631645,40.1961171316559],[-74.0123478379345,40.1968521976188]]}},{"type":"Feature","id":207726,"properties":{"OBJECTID":207726,"PRIMENAME":"Lake Terrace","ELEVTYP_F":0,"ELEVTYP_T":0},"geometry":{"type":"LineString","coordinates":[[-74.011621232686,40.2069823449096],[-74.0119315606441,40.2070717215082],[-74.0131556984912,40.2074181663577]]}},{"type":"Feature","id":208440,"properties":{"OBJECTID":208440,"PRIMENAME":"Prospect Avenue","ELEVTYP_F":0,"ELEVTYP_T":0},"geometry":{"type":"LineString","coordinates":[[-74.0173343700425,40.2090135558541],[-74.0172282514738,40.2089917547845],[-74.0168226212429,40.2089084515454],[-74.0165424568904,40.2088509150044],[-74.0160674966204,40.20875336993],[-74.0159371732146,40.2087266352776]]}},{"type":"Feature","id":208672,"properties":{"OBJECTID":208672,"PRIMENAME":"5th Avenue","ELEVTYP_F":0,"ELEVTYP_T":0},"geometry":{"type":"LineString","coordinates":[[-74.0112385973683,40.2009431157383],[-74.0121733297457,40.2010960983614],[-74.0130238328011,40.2012379029541],[-74.0131642394438,40.2012591378551]]}},{"type":"Feature","id":209182,"properties":{"OBJECTID":209182,"PRIMENAME":"Fletcher Lake Avenue","ELEVTYP_F":0,"ELEVTYP_T":0},"geometry":{"type":"LineString","coordinates":[[-74.0137201033242,40.2052981544484],[-74.013677457512,40.205453851104],[-74.0135271934555,40.2060087500621]]}},{"type":"Feature","id":211340,"properties":{"OBJECTID":211340,"PRIMENAME":"McCabe Avenue","ELEVTYP_F":0,"ELEVTYP_T":0},"geometry":{"type":"LineString","coordinates":[[-74.0139208680756,40.2045598650925],[-74.0154937614915,40.2048126814214]]}},{"type":"Feature","id":212140,"properties":{"OBJECTID":212140,"PRIMENAME":"Main Street","ELEVTYP_F":0,"ELEVTYP_T":0},"geometry":{"type":"LineString","coordinates":[[-74.0200809214473,40.197290758361],[-74.0197416189343,40.1982279822822]]}},{"type":"Feature","id":212431,"properties":{"OBJECTID":212431,"PRIMENAME":"Central Avenue","ELEVTYP_F":0,"ELEVTYP_T":0},"geometry":{"type":"LineString","coordinates":[[-74.0123478379345,40.1968521976188],[-74.0120703344647,40.1978887630965]]}},{"type":"Feature","id":212661,"properties":{"OBJECTID":212661,"PRIMENAME":"Evergreen Avenue","ELEVTYP_F":0,"ELEVTYP_T":0},"geometry":{"type":"LineString","coordinates":[[-74.0090639417416,40.1958358586187],[-74.009233537179,40.195888654689],[-74.0100654229682,40.1961475338492],[-74.0104834665391,40.1962776249527]]}},{"type":"Feature","id":214414,"properties":{"OBJECTID":214414,"PRIMENAME":"Bradley Boulevard","ELEVTYP_F":0,"ELEVTYP_T":0},"geometry":{"type":"LineString","coordinates":[[-74.0129292894617,40.1959630394816],[-74.013873918724,40.1958891819371],[-74.0146282553619,40.1958077657321]]}},{"type":"Feature","id":215175,"properties":{"OBJECTID":215175,"PRIMENAME":"Evergreen Avenue","ELEVTYP_F":0,"ELEVTYP_T":0},"geometry":{"type":"LineString","coordinates":[[-74.0207229839644,40.1994433404342],[-74.0208245493132,40.1994641035055],[-74.0209456814814,40.1994617497097],[-74.0210390394015,40.1994430561394],[-74.0211201081455,40.1994052597056],[-74.0212072690994,40.1993770148383],[-74.0213068582539,40.1993631239972],[-74.0214311219333,40.1993684149516],[-74.0220473191245,40.1994671814889]]}},{"type":"Feature","id":215870,"properties":{"OBJECTID":215870,"PRIMENAME":"1st Avenue","ELEVTYP_F":0,"ELEVTYP_T":0},"geometry":{"type":"LineString","coordinates":[[-74.0114912419122,40.1950889373741],[-74.0114904779177,40.1950945813773],[-74.0116458070333,40.1951000130118],[-74.011838572736,40.1950865503465],[-74.0120066329678,40.195053877218],[-74.0122621248388,40.1949596382805],[-74.0124178976708,40.194903082745],[-74.0125984463199,40.1948609628428],[-74.0127290647182,40.1948424328232],[-74.0128534934984,40.1948286537861],[-74.013027403309,40.1948436881848],[-74.0131889943337,40.1948443678133],[-74.0133007939613,40.1948543643261],[-74.0134746368452,40.1948789512236],[-74.0136176468228,40.1948747749857]]}},{"type":"Feature","id":217742,"properties":{"OBJECTID":217742,"PRIMENAME":"Ocean Avenue","ELEVTYP_F":0,"ELEVTYP_T":0},"geometry":{"type":"LineString","coordinates":[[-74.0076298189118,40.200379704455],[-74.0073697166474,40.2012237544744],[-74.007318770535,40.2013890750735]]}},{"type":"Feature","id":217935,"properties":{"OBJECTID":217935,"PRIMENAME":"3rd Avenue","ELEVTYP_F":0,"ELEVTYP_T":0},"geometry":{"type":"LineString","coordinates":[[-74.0152943762641,40.1994624659131],[-74.0166986549626,40.1996879853981]]}},{"type":"Feature","id":219475,"properties":{"OBJECTID":219475,"PRIMENAME":"Pacific Avenue","ELEVTYP_F":0,"ELEVTYP_T":0},"geometry":{"type":"LineString","coordinates":[[-74.0194481799469,40.1963286372674],[-74.0194475279906,40.1963298153449],[-74.0193852727656,40.196441206269],[-74.019090281549,40.1969686363563]]}},{"type":"Feature","id":220663,"properties":{"OBJECTID":220663,"PRIMENAME":"Beach Avenue","ELEVTYP_F":0,"ELEVTYP_T":0},"geometry":{"type":"LineString","coordinates":[[-74.0101553496936,40.1975134702076],[-74.0102096466443,40.1973110447421]]}},{"type":"Feature","id":221654,"properties":{"OBJECTID":221654,"PRIMENAME":"Memorial Drive","ELEVTYP_F":0,"ELEVTYP_T":0},"geometry":{"type":"LineString","coordinates":[[-74.0181418424528,40.2073594451309],[-74.0181420241166,40.2073590063589],[-74.0181992018918,40.207187666256],[-74.0182375192513,40.2070400758182],[-74.0182825083037,40.2068353024098],[-74.0183536912606,40.20643525777],[-74.0183684275257,40.206346510065]]}},{"type":"Feature","id":221794,"properties":{"OBJECTID":221794,"PRIMENAME":"Main Street","ELEVTYP_F":0,"ELEVTYP_T":0},"geometry":{"type":"LineString","coordinates":[[-74.0190858200386,40.2000425113076],[-74.0190781167337,40.2000636730553]]}},{"type":"Feature","id":222256,"properties":{"OBJECTID":222256,"PRIMENAME":"Ocean Park Avenue","ELEVTYP_F":0,"ELEVTYP_T":0},"geometry":{"type":"LineString","coordinates":[[-74.0082897784204,40.2044247902597],[-74.0066378730623,40.2041563035839],[-74.0064671834972,40.2041285630079]]}},{"type":"Feature","id":222608,"properties":{"OBJECTID":222608,"PRIMENAME":"Central Avenue","ELEVTYP_F":0,"ELEVTYP_T":0},"geometry":{"type":"LineString","coordinates":[[-74.0104079901496,40.2039990019974],[-74.0102100466246,40.2047332621929]]}},{"type":"Feature","id":223282,"properties":{"OBJECTID":223282,"PRIMENAME":"Lareine Avenue","ELEVTYP_F":0,"ELEVTYP_T":0},"geometry":{"type":"LineString","coordinates":[[-74.0126070927199,40.2033030263175],[-74.0139275066391,40.2035151034528],[-74.0141888853972,40.2035583134486]]}},{"type":"Feature","id":224849,"properties":{"OBJECTID":224849,"PRIMENAME":"Hammond Avenue","ELEVTYP_F":0,"ELEVTYP_T":0},"geometry":{"type":"LineString","coordinates":[[-74.0152964145479,40.2055459089191],[-74.0154094063923,40.2051257264102],[-74.0154588635479,40.2049418098125],[-74.0154937614915,40.2048126814214]]}},{"type":"Feature","id":226117,"properties":{"OBJECTID":226117,"PRIMENAME":"Park Place","ELEVTYP_F":0,"ELEVTYP_T":0},"geometry":{"type":"LineString","coordinates":[[-74.0080643098196,40.2052684929796],[-74.0079415018118,40.2052485065852],[-74.0069682274484,40.2050900819513],[-74.0064079891877,40.2049988854442],[-74.0063497681225,40.204989422395],[-74.0062036805273,40.2049656754472]]}},{"type":"Feature","id":227467,"properties":{"OBJECTID":227467,"PRIMENAME":"Ocean Avenue","ELEVTYP_F":0,"ELEVTYP_T":0},"geometry":{"type":"LineString","coordinates":[[-74.007318770535,40.2013890750735],[-74.0071703549169,40.2018708402117],[-74.0070366801717,40.202299217454],[-74.0070047158125,40.2024019183665]]}},{"type":"Feature","id":227664,"properties":{"OBJECTID":227664,"PRIMENAME":"Beach Avenue","ELEVTYP_F":0,"ELEVTYP_T":0},"geometry":{"type":"LineString","coordinates":[[-74.0102096466443,40.1973110447421],[-74.010458174473,40.19638474774],[-74.0104834665391,40.1962776249527]]}},{"type":"Feature","id":236586,"properties":{"OBJECTID":236586,"PRIMENAME":"Ocean Avenue","ELEVTYP_F":0,"ELEVTYP_T":0},"geometry":{"type":"LineString","coordinates":[[-74.0064671834972,40.2041285630079],[-74.0063533609184,40.204494120942],[-74.0063239251674,40.2045886606048],[-74.0062036805273,40.2049656754472]]}},{"type":"Feature","id":238631,"properties":{"OBJECTID":238631,"PRIMENAME":"4th Avenue","ELEVTYP_F":0,"ELEVTYP_T":0},"geometry":{"type":"LineString","coordinates":[[-74.0182800969887,40.2010023459929],[-74.0170298249646,40.200801910987],[-74.0164230181109,40.2007062030593]]}},{"type":"Feature","id":238749,"properties":{"OBJECTID":238749,"PRIMENAME":"Lareine Avenue","ELEVTYP_F":0,"ELEVTYP_T":0},"geometry":{"type":"LineString","coordinates":[[-74.0070047158125,40.2024019183665],[-74.0071663170957,40.2024284665978],[-74.0086563105468,40.2026730888088],[-74.0087555162335,40.2026886087267]]}},{"type":"Feature","id":238837,"properties":{"OBJECTID":238837,"PRIMENAME":"Atlantic Avenue","ELEVTYP_F":0,"ELEVTYP_T":0},"geometry":{"type":"LineString","coordinates":[[-74.0174378799219,40.1964308541744],[-74.0177736447222,40.1958244522745],[-74.0178276769988,40.1957269739994],[-74.0178282931623,40.1957258777433]]}},{"type":"Feature","id":239868,"properties":{"OBJECTID":239868,"PRIMENAME":"Main Street","ELEVTYP_F":0,"ELEVTYP_T":0},"geometry":{"type":"LineString","coordinates":[[-74.0203949128411,40.1964240547846],[-74.0203104080502,40.1966545618522]]}},{"type":"Feature","id":242465,"properties":{"OBJECTID":242465,"PRIMENAME":"Fletcher Lake Avenue","ELEVTYP_F":0,"ELEVTYP_T":0},"geometry":{"type":"LineString","coordinates":[[-74.0152943762641,40.1994624659131],[-74.0151650213085,40.1999457480394],[-74.0150499533794,40.2003932646435],[-74.0150247703618,40.2004857024384]]}},{"type":"Feature","id":243304,"properties":{"OBJECTID":243304,"PRIMENAME":"Hammond Avenue","ELEVTYP_F":0,"ELEVTYP_T":0},"geometry":{"type":"LineString","coordinates":[[-74.0157627819026,40.2038179376235],[-74.0160440016117,40.2027780302298]]}},{"type":"Feature","id":243994,"properties":{"OBJECTID":243994,"PRIMENAME":"Newark Avenue","ELEVTYP_F":0,"ELEVTYP_T":0},"geometry":{"type":"LineString","coordinates":[[-74.013340447906,40.2066981495327],[-74.0136930069577,40.2067550576833],[-74.0138047918894,40.2067698578472],[-74.0140904839842,40.2067996078533],[-74.0149400228878,40.2068711706802]]}},{"type":"Feature","id":243999,"properties":{"OBJECTID":243999,"PRIMENAME":"Beach Avenue","ELEVTYP_F":0,"ELEVTYP_T":0},"geometry":{"type":"LineString","coordinates":[[-74.008485858715,40.2036934634264],[-74.0087555162335,40.2026886087267]]}},{"type":"Feature","id":244192,"properties":{"OBJECTID":244192,"PRIMENAME":"Ocean Avenue","ELEVTYP_F":0,"ELEVTYP_T":0},"geometry":{"type":"LineString","coordinates":[[-74.0057801464554,40.2063026184596],[-74.0054139485198,40.2074584263258]]}},{"type":"Feature","id":246096,"properties":{"OBJECTID":246096,"PRIMENAME":"Madison Avenue","ELEVTYP_F":0,"ELEVTYP_T":0},"geometry":{"type":"LineString","coordinates":[[-74.0131642394438,40.2012591378551],[-74.0133199228038,40.2006862536226],[-74.0134404367647,40.200234890577]]}},{"type":"Feature","id":247275,"properties":{"OBJECTID":247275,"PRIMENAME":"Main Street","ELEVTYP_F":0,"ELEVTYP_T":0},"geometry":{"type":"LineString","coordinates":[[-74.0162544499174,40.2078504132293],[-74.0160144213504,40.2085133017285]]}},{"type":"Feature","id":249510,"properties":{"OBJECTID":249510,"PRIMENAME":"Burlington Avenue","ELEVTYP_F":0,"ELEVTYP_T":0},"geometry":{"type":"LineString","coordinates":[[-74.019090281549,40.1969686363563],[-74.0199823755923,40.1972586964912],[-74.0200809214473,40.197290758361]]}},{"type":"Feature","id":249783,"properties":{"OBJECTID":249783,"PRIMENAME":"Fletcher Lake Avenue","ELEVTYP_F":0,"ELEVTYP_T":0},"geometry":{"type":"LineString","coordinates":[[-74.014467731023,40.2025282271578],[-74.0143734308267,40.2028687651748],[-74.0141888853972,40.2035583134486]]}},{"type":"Feature","id":250668,"properties":{"OBJECTID":250668,"PRIMENAME":"5th Avenue","ELEVTYP_F":0,"ELEVTYP_T":0},"geometry":{"type":"LineString","coordinates":[[-74.0147480133784,40.2015013587225],[-74.0156247706794,40.2016563005157]]}},{"type":"Feature","id":251014,"properties":{"OBJECTID":251014,"PRIMENAME":"Pennsylvania Avenue","ELEVTYP_F":0,"ELEVTYP_T":0},"geometry":{"type":"LineString","coordinates":[[-74.0113341929331,40.2077787670997],[-74.0114789741568,40.2073770343993]]}},{"type":"Feature","id":251016,"properties":{"OBJECTID":251016,"PRIMENAME":"4th Avenue","ELEVTYP_F":0,"ELEVTYP_T":0},"geometry":{"type":"LineString","coordinates":[[-74.0187120069179,40.2010715831297],[-74.0182800969887,40.2010023459929]]}},{"type":"Feature","id":252167,"properties":{"OBJECTID":252167,"PRIMENAME":"Atkins Avenue","ELEVTYP_F":0,"ELEVTYP_T":0},"geometry":{"type":"LineString","coordinates":[[-74.0212975334572,40.2046797168685],[-74.0211302178182,40.2051495336485],[-74.0209388484057,40.2056868947284]]}},{"type":"Feature","id":253489,"properties":{"OBJECTID":253489,"PRIMENAME":"New York Avenue","ELEVTYP_F":0,"ELEVTYP_T":0},"geometry":{"type":"LineString","coordinates":[[-74.0102078338717,40.2085377640554],[-74.0100484904597,40.2089663374066],[-74.0100306309578,40.2090150998508]]}},{"type":"Feature","id":254087,"properties":{"OBJECTID":254087,"PRIMENAME":"Ocean Avenue","ELEVTYP_F":0,"ELEVTYP_T":0},"geometry":{"type":"LineString","coordinates":[[-74.0088601078081,40.1944107256088],[-74.0088121397315,40.1946138087653],[-74.0088115207797,40.1946995953557],[-74.0088414933139,40.1948522210724],[-74.0090540856739,40.1955346611451],[-74.0090574726874,40.1955511488375]]}},{"type":"Feature","id":254295,"properties":{"OBJECTID":254295,"PRIMENAME":"Ocean Park Avenue","ELEVTYP_F":0,"ELEVTYP_T":0},"geometry":{"type":"LineString","coordinates":[[-74.0137201033242,40.2052981544484],[-74.0133371405135,40.205237961704],[-74.0125690931379,40.2051138013715],[-74.0121379049719,40.2050440949349]]}},{"type":"Feature","id":255092,"properties":{"OBJECTID":255092,"PRIMENAME":"Inskip Avenue","ELEVTYP_F":0,"ELEVTYP_T":0},"geometry":{"type":"LineString","coordinates":[[-74.0150901853578,40.2085800347238],[-74.0149872555534,40.2085581909179],[-74.0144383194753,40.2084418789123]]}},{"type":"Feature","id":255741,"properties":{"OBJECTID":255741,"PRIMENAME":"Lake Terrace","ELEVTYP_F":0,"ELEVTYP_T":0},"geometry":{"type":"LineString","coordinates":[[-74.007992424409,40.2068072591794],[-74.0083660131049,40.2067182532336],[-74.0087271093493,40.2066435227587],[-74.0089573200956,40.2066159221098],[-74.0092247343274,40.2065979763297],[-74.0096162867395,40.2066044128952],[-74.009703681579,40.206615104799]]}},{"type":"Feature","id":255761,"properties":{"OBJECTID":255761,"PRIMENAME":"Lareine Avenue","ELEVTYP_F":0,"ELEVTYP_T":0},"geometry":{"type":"LineString","coordinates":[[-74.0106824069169,40.2029905944774],[-74.011611691833,40.2031431469938],[-74.0126070927199,40.2033030263175]]}},{"type":"Feature","id":256503,"properties":{"OBJECTID":256503,"PRIMENAME":"Brinley Avenue","ELEVTYP_F":0,"ELEVTYP_T":0},"geometry":{"type":"LineString","coordinates":[[-74.0090250677562,40.2016624770618],[-74.0074781921831,40.2014145976341],[-74.007318770535,40.2013890750735]]}},{"type":"Feature","id":257880,"properties":{"OBJECTID":257880,"PRIMENAME":"Evergreen Avenue","ELEVTYP_F":0,"ELEVTYP_T":0},"geometry":{"type":"LineString","coordinates":[[-74.0194453177809,40.1990517032205],[-74.0203468781059,40.199333455045],[-74.020539051319,40.1994057376153],[-74.0205852150872,40.1994151751223]]}},{"type":"Feature","id":258110,"properties":{"OBJECTID":258110,"PRIMENAME":"Evergreen Avenue","ELEVTYP_F":0,"ELEVTYP_T":0},"geometry":{"type":"LineString","coordinates":[[-74.0157128490978,40.1978986230402],[-74.0158505509007,40.1979421080266],[-74.0164914062101,40.1981398372909]]}},{"type":"Feature","id":261127,"properties":{"OBJECTID":261127,"PRIMENAME":"Unnamed Segment","ELEVTYP_F":0,"ELEVTYP_T":0},"geometry":{"type":"LineString","coordinates":[[-74.0186333817974,40.1999940768241],[-74.0186277151839,40.200010409493],[-74.0186167023791,40.2000439381069],[-74.0186090216665,40.2000718495649],[-74.0185952363869,40.2001173951426],[-74.0185718976554,40.2001829364712],[-74.0185496258012,40.2002593821825],[-74.0185342217077,40.2003112581577],[-74.0185159065362,40.2003648522162],[-74.0184869714852,40.2004417376483],[-74.0184548364886,40.2005256350141],[-74.0184258245288,40.2005982635256],[-74.0183941160692,40.2006774692371],[-74.0183652792115,40.2007505650087],[-74.0183267811936,40.2008583487399],[-74.0183120276913,40.2008992463762],[-74.018295225347,40.2009514740624],[-74.0182800969887,40.2010023459929]]}},{"type":"Feature","id":263854,"properties":{"OBJECTID":263854,"PRIMENAME":"Central Avenue","ELEVTYP_F":0,"ELEVTYP_T":0},"geometry":{"type":"LineString","coordinates":[[-74.0120703344647,40.1978887630965],[-74.0119379435248,40.1983831756547],[-74.0117947246149,40.1989046102955]]}},{"type":"Feature","id":264882,"properties":{"OBJECTID":264882,"PRIMENAME":"Evergreen Avenue","ELEVTYP_F":0,"ELEVTYP_T":0},"geometry":{"type":"LineString","coordinates":[[-74.014201218718,40.1974212027245],[-74.0157128490978,40.1978986230402]]}},{"type":"Feature","id":264951,"properties":{"OBJECTID":264951,"PRIMENAME":"Beach Avenue","ELEVTYP_F":0,"ELEVTYP_T":0},"geometry":{"type":"LineString","coordinates":[[-74.0093222047467,40.2006425284391],[-74.0093652968837,40.2005599689335],[-74.0095951974842,40.1997078270955],[-74.0096006712185,40.1996288963502]]}},{"type":"Feature","id":265210,"properties":{"OBJECTID":265210,"PRIMENAME":"Ocean Avenue","ELEVTYP_F":0,"ELEVTYP_T":0},"geometry":{"type":"LineString","coordinates":[[-74.0066912683839,40.2034087512121],[-74.0064671834972,40.2041285630079]]}},{"type":"Feature","id":265909,"properties":{"OBJECTID":265909,"PRIMENAME":"3rd Avenue","ELEVTYP_F":0,"ELEVTYP_T":0},"geometry":{"type":"LineString","coordinates":[[-74.0190858200386,40.2000425113076],[-74.0186252810774,40.1999035011249]]}},{"type":"Feature","id":265959,"properties":{"OBJECTID":265959,"PRIMENAME":"Fletcher Lake Avenue","ELEVTYP_F":0,"ELEVTYP_T":0},"geometry":{"type":"LineString","coordinates":[[-74.0107132389861,40.207177898659],[-74.0104658565453,40.2071236500347],[-74.0100996635841,40.2070458373062],[-74.0099816475283,40.2070262579431],[-74.0098635666066,40.2070305351929],[-74.0096767532705,40.2070726520681],[-74.009421452688,40.2071335312333],[-74.0093357516325,40.2071908731713]]}},{"type":"Feature","id":268224,"properties":{"OBJECTID":268224,"PRIMENAME":"Madison Avenue","ELEVTYP_F":0,"ELEVTYP_T":0},"geometry":{"type":"LineString","coordinates":[[-74.0137139091191,40.1992099446852],[-74.0137925197268,40.1989152970644],[-74.0139183191262,40.1984648616498]]}},{"type":"Feature","id":268519,"properties":{"OBJECTID":268519,"PRIMENAME":"7th Avenue","ELEVTYP_F":0,"ELEVTYP_T":0},"geometry":{"type":"LineString","coordinates":[[-74.0189918158657,40.2043014153738],[-74.0190488269932,40.2043098880089],[-74.0191058381352,40.204318360616],[-74.0212975334572,40.2046797168685]]}},{"type":"Feature","id":270127,"properties":{"OBJECTID":270127,"PRIMENAME":"Hammond Avenue","ELEVTYP_F":0,"ELEVTYP_T":0},"geometry":{"type":"LineString","coordinates":[[-74.0167913816147,40.1993499092529],[-74.0170593589239,40.1983904067545],[-74.0170787178786,40.1983210599753]]}},{"type":"Feature","id":272646,"properties":{"OBJECTID":272646,"PRIMENAME":"Lareine Avenue","ELEVTYP_F":0,"ELEVTYP_T":0},"geometry":{"type":"LineString","coordinates":[[-74.0157627819026,40.2038179376235],[-74.0174664793644,40.2040875539226],[-74.0176119418367,40.2041038354929]]}},{"type":"Feature","id":273097,"properties":{"OBJECTID":273097,"PRIMENAME":"Central Avenue","ELEVTYP_F":0,"ELEVTYP_T":0},"geometry":{"type":"LineString","coordinates":[[-74.0077625053778,40.2080120250871],[-74.0076616215182,40.2080840434096],[-74.0075989122274,40.2081600122619],[-74.0075102515618,40.2083884247002],[-74.0074797815691,40.2084722998393]]}},{"type":"Feature","id":273874,"properties":{"OBJECTID":273874,"PRIMENAME":"3rd Avenue","ELEVTYP_F":0,"ELEVTYP_T":0},"geometry":{"type":"LineString","coordinates":[[-74.0082703058391,40.1983486026548],[-74.0084573311272,40.1983780293515],[-74.0098595942602,40.198598737057]]}},{"type":"Feature","id":275740,"properties":{"OBJECTID":275740,"PRIMENAME":"Whitefield Avenue","ELEVTYP_F":0,"ELEVTYP_T":0},"geometry":{"type":"LineString","coordinates":[[-74.0133363599147,40.2092122084688],[-74.0135094882506,40.2087357295218]]}},{"type":"Feature","id":276487,"properties":{"OBJECTID":276487,"PRIMENAME":"Central Avenue","ELEVTYP_F":0,"ELEVTYP_T":0},"geometry":{"type":"LineString","coordinates":[[-74.0100161565445,40.205450819923],[-74.0098630066243,40.2060096819299],[-74.0098291027083,40.2061385110615]]}},{"type":"Feature","id":276635,"properties":{"OBJECTID":276635,"PRIMENAME":"South Main Street","ELEVTYP_F":0,"ELEVTYP_T":0},"geometry":{"type":"LineString","coordinates":[[-74.0160144213504,40.2085133017285],[-74.0159371732146,40.2087266352776]]}},{"type":"Feature","id":277422,"properties":{"OBJECTID":277422,"PRIMENAME":"3rd Avenue","ELEVTYP_F":0,"ELEVTYP_T":0},"geometry":{"type":"LineString","coordinates":[[-74.0166986549626,40.1996879853981],[-74.017565064678,40.1998271048201],[-74.018226133755,40.1999304271345],[-74.0186333817974,40.1999940768241]]}},{"type":"Feature","id":277607,"properties":{"OBJECTID":277607,"PRIMENAME":"Memorial Drive","ELEVTYP_F":0,"ELEVTYP_T":0},"geometry":{"type":"LineString","coordinates":[[-74.0176948136464,40.2083948229204],[-74.0178002799311,40.2082154755079],[-74.0178148476161,40.20818797742],[-74.0178758745431,40.2080727897411],[-74.0179582380607,40.2078539244202],[-74.0180659584274,40.2075683995603],[-74.0181418424528,40.2073594451309]]}},{"type":"Feature","id":277748,"properties":{"OBJECTID":277748,"PRIMENAME":"Memorial Drive","ELEVTYP_F":0,"ELEVTYP_T":0},"geometry":{"type":"LineString","coordinates":[[-74.0173343700425,40.2090135558541],[-74.0173473107611,40.2089761643671],[-74.0174606550463,40.208771703365],[-74.0176492927148,40.2084722144517],[-74.0176948136464,40.2083948229204]]}},{"type":"Feature","id":279819,"properties":{"OBJECTID":279819,"PRIMENAME":"Evergreen Avenue","ELEVTYP_F":0,"ELEVTYP_T":0},"geometry":{"type":"LineString","coordinates":[[-74.0205852150872,40.1994151751223],[-74.0207229839644,40.1994433404342]]}},{"type":"Feature","id":280000,"properties":{"OBJECTID":280000,"PRIMENAME":"Riley Court","ELEVTYP_F":0,"ELEVTYP_T":0},"geometry":{"type":"LineString","coordinates":[[-74.0130453802425,40.207766754274],[-74.0132670787379,40.2078235598869],[-74.0138042109885,40.2079454949]]}},{"type":"Feature","id":282729,"properties":{"OBJECTID":282729,"PRIMENAME":"Brinley Avenue","ELEVTYP_F":0,"ELEVTYP_T":0},"geometry":{"type":"LineString","coordinates":[[-74.014467731023,40.2025282271578],[-74.0129976099417,40.2022958701688],[-74.0128867110003,40.2022783006832]]}},{"type":"Feature","id":283809,"properties":{"OBJECTID":283809,"PRIMENAME":"Beach Avenue","ELEVTYP_F":0,"ELEVTYP_T":0},"geometry":{"type":"LineString","coordinates":[[-74.0090250677562,40.2016624770618],[-74.0090663568337,40.2015023845968],[-74.009283361352,40.2007168981025],[-74.0093222047467,40.2006425284391]]}},{"type":"Feature","id":283826,"properties":{"OBJECTID":283826,"PRIMENAME":"Franklin Avenue","ELEVTYP_F":0,"ELEVTYP_T":0},"geometry":{"type":"LineString","coordinates":[[-74.0109938510222,40.2087067631448],[-74.0102078338717,40.2085377640554]]}},{"type":"Feature","id":286096,"properties":{"OBJECTID":286096,"PRIMENAME":"Main Street","ELEVTYP_F":0,"ELEVTYP_T":0},"geometry":{"type":"LineString","coordinates":[[-74.0203104080502,40.1966545618522],[-74.0200809214473,40.197290758361]]}},{"type":"Feature","id":287825,"properties":{"OBJECTID":287825,"PRIMENAME":"4th Avenue","ELEVTYP_F":0,"ELEVTYP_T":0},"geometry":{"type":"LineString","coordinates":[[-74.0200807201072,40.2012900226728],[-74.0199310363261,40.2012664798821]]}},{"type":"Feature","id":287855,"properties":{"OBJECTID":287855,"PRIMENAME":"Ocean Park Avenue","ELEVTYP_F":0,"ELEVTYP_T":0},"geometry":{"type":"LineString","coordinates":[[-74.0121379049719,40.2050440949349],[-74.0106735700112,40.2048073132351],[-74.0102100466246,40.2047332621929]]}},{"type":"Feature","id":288013,"properties":{"OBJECTID":288013,"PRIMENAME":"3rd Avenue","ELEVTYP_F":0,"ELEVTYP_T":0},"geometry":{"type":"LineString","coordinates":[[-74.0192400109113,40.2000890527945],[-74.0190858200386,40.2000425113076]]}},{"type":"Feature","id":288235,"properties":{"OBJECTID":288235,"PRIMENAME":"Delaware Avenue","ELEVTYP_F":0,"ELEVTYP_T":0},"geometry":{"type":"LineString","coordinates":[[-74.0130453802425,40.207766754274],[-74.0129170837102,40.20811948156]]}},{"type":"Feature","id":288495,"properties":{"OBJECTID":288495,"PRIMENAME":"5th Avenue","ELEVTYP_F":0,"ELEVTYP_T":0},"geometry":{"type":"LineString","coordinates":[[-74.0093222047467,40.2006425284391],[-74.0108881857291,40.2008857426345],[-74.0112385973683,40.2009431157383]]}},{"type":"Feature","id":289545,"properties":{"OBJECTID":289545,"PRIMENAME":"Stockton Avenue","ELEVTYP_F":0,"ELEVTYP_T":0},"geometry":{"type":"LineString","coordinates":[[-74.0127512966913,40.2085753741841],[-74.0135094882506,40.2087357295218]]}},{"type":"Feature","id":290760,"properties":{"OBJECTID":290760,"PRIMENAME":"Central Avenue","ELEVTYP_F":0,"ELEVTYP_T":0},"geometry":{"type":"LineString","coordinates":[[-74.0074797815691,40.2084722998393],[-74.007310004309,40.2089400276485]]}},{"type":"Feature","id":291154,"properties":{"OBJECTID":291154,"PRIMENAME":"Fletcher Lake Avenue","ELEVTYP_F":0,"ELEVTYP_T":0},"geometry":{"type":"LineString","coordinates":[[-74.0135271934555,40.2060087500621],[-74.013340447906,40.2066981495327]]}},{"type":"Feature","id":291906,"properties":{"OBJECTID":291906,"PRIMENAME":"Stockton Avenue","ELEVTYP_F":0,"ELEVTYP_T":0},"geometry":{"type":"LineString","coordinates":[[-74.0111681998866,40.208236963218],[-74.0118182104274,40.2083780676041],[-74.0119612885874,40.2084083192487]]}},{"type":"Feature","id":293616,"properties":{"OBJECTID":293616,"PRIMENAME":"Main Street","ELEVTYP_F":0,"ELEVTYP_T":0},"geometry":{"type":"LineString","coordinates":[[-74.0176119418367,40.2041038354929],[-74.0173483187344,40.2048359392804],[-74.0172476288218,40.2050945069712]]}},{"type":"Feature","id":293752,"properties":{"OBJECTID":293752,"PRIMENAME":"Main Street","ELEVTYP_F":0,"ELEVTYP_T":0},"geometry":{"type":"LineString","coordinates":[[-74.0205326800933,40.1960356846188],[-74.0204291827142,40.196330591491],[-74.0203949128411,40.1964240547846]]}},{"type":"Feature","id":296866,"properties":{"OBJECTID":296866,"PRIMENAME":"Ocean Avenue","ELEVTYP_F":0,"ELEVTYP_T":0},"geometry":{"type":"LineString","coordinates":[[-74.008619987551,40.1972106127578],[-74.0082703058391,40.1983486026548]]}},{"type":"Feature","id":299608,"properties":{"OBJECTID":299608,"PRIMENAME":"4th Avenue","ELEVTYP_F":0,"ELEVTYP_T":0},"geometry":{"type":"LineString","coordinates":[[-74.0164230181109,40.2007062030593],[-74.0150247703618,40.2004857024384]]}},{"type":"Feature","id":302798,"properties":{"OBJECTID":302798,"PRIMENAME":"5th Avenue","ELEVTYP_F":0,"ELEVTYP_T":0},"geometry":{"type":"LineString","coordinates":[[-74.0183344193534,40.2021113711616],[-74.0184874898138,40.2021043486434],[-74.019356740571,40.2022414084342],[-74.0193809497081,40.2022452251272],[-74.019394387759,40.2022473434608]]}},{"type":"Feature","id":303827,"properties":{"OBJECTID":303827,"PRIMENAME":"Park Place","ELEVTYP_F":0,"ELEVTYP_T":0},"geometry":{"type":"LineString","coordinates":[[-74.0119457846737,40.205757380653],[-74.010183853106,40.20547725284],[-74.0100161565445,40.205450819923]]}},{"type":"Feature","id":303849,"properties":{"OBJECTID":303849,"PRIMENAME":"5th Avenue","ELEVTYP_F":0,"ELEVTYP_T":0},"geometry":{"type":"LineString","coordinates":[[-74.0131642394438,40.2012591378551],[-74.0146443894335,40.2014829972993],[-74.0147480133784,40.2015013587225]]}},{"type":"Feature","id":304120,"properties":{"OBJECTID":304120,"PRIMENAME":"8th Avenue","ELEVTYP_F":0,"ELEVTYP_T":0},"geometry":{"type":"LineString","coordinates":[[-74.0209388484057,40.2056868947284],[-74.0219773946857,40.2058500009876],[-74.0231633745628,40.2060407741623],[-74.0236922332517,40.2061245127822]]}},{"type":"Feature","id":304342,"properties":{"OBJECTID":304342,"PRIMENAME":"Lakeside Avenue","ELEVTYP_F":0,"ELEVTYP_T":0},"geometry":{"type":"LineString","coordinates":[[-74.0205326800933,40.1960356846188],[-74.0204092671664,40.1959611893235],[-74.019431421211,40.1953708834766]]}},{"type":"Feature","id":305404,"properties":{"OBJECTID":305404,"PRIMENAME":"McCabe Avenue","ELEVTYP_F":0,"ELEVTYP_T":0},"geometry":{"type":"LineString","coordinates":[[-74.0104079901496,40.2039990019974],[-74.0112191968858,40.2041280532157],[-74.0123366065797,40.2043063490378]]}},{"type":"Feature","id":305608,"properties":{"OBJECTID":305608,"PRIMENAME":"Stockton Avenue","ELEVTYP_F":0,"ELEVTYP_T":0},"geometry":{"type":"LineString","coordinates":[[-74.0083676702832,40.2076288336021],[-74.0085721573345,40.2076732421969],[-74.009118410391,40.2077918484326]]}},{"type":"Feature","id":305851,"properties":{"OBJECTID":305851,"PRIMENAME":"Pilgrim Pathway","ELEVTYP_F":0,"ELEVTYP_T":0},"geometry":{"type":"LineString","coordinates":[[-74.0085968226896,40.2092158495667],[-74.0087698952117,40.208746816179]]}},{"type":"Feature","id":306102,"properties":{"OBJECTID":306102,"PRIMENAME":"Hammond Avenue","ELEVTYP_F":0,"ELEVTYP_T":0},"geometry":{"type":"LineString","coordinates":[[-74.0160440016117,40.2027780302298],[-74.0160781238818,40.2026519462456],[-74.0161226732451,40.2025043824481],[-74.0161552403667,40.2022948085385],[-74.0161830305708,40.2019965974095]]}},{"type":"Feature","id":306227,"properties":{"OBJECTID":306227,"PRIMENAME":"Madison Avenue","ELEVTYP_F":0,"ELEVTYP_T":0},"geometry":{"type":"LineString","coordinates":[[-74.0123366065797,40.2043063490378],[-74.0125858420476,40.2033807919107],[-74.0126070927199,40.2033030263175]]}},{"type":"Feature","id":306437,"properties":{"OBJECTID":306437,"PRIMENAME":"4th Avenue","ELEVTYP_F":0,"ELEVTYP_T":0},"geometry":{"type":"LineString","coordinates":[[-74.0115146771952,40.1999240334096],[-74.0096006712185,40.1996288963502]]}},{"type":"Feature","id":306438,"properties":{"OBJECTID":306438,"PRIMENAME":"Hammond Avenue","ELEVTYP_F":0,"ELEVTYP_T":0},"geometry":{"type":"LineString","coordinates":[[-74.0164230181109,40.2007062030593],[-74.0165042875235,40.2004089023718],[-74.0166986549626,40.1996879853981]]}},{"type":"Feature","id":307452,"properties":{"OBJECTID":307452,"PRIMENAME":"2nd Avenue","ELEVTYP_F":0,"ELEVTYP_T":0},"geometry":{"type":"LineString","coordinates":[[-74.0167913816147,40.1993499092529],[-74.0156937119697,40.1990185812337],[-74.0154347289707,40.1989378031488]]}},{"type":"Feature","id":307957,"properties":{"OBJECTID":307957,"PRIMENAME":"4th Avenue","ELEVTYP_F":0,"ELEVTYP_T":0},"geometry":{"type":"LineString","coordinates":[[-74.0223917961042,40.2016563825913],[-74.0202240198996,40.201312743517],[-74.0200807201072,40.2012900226728]]}},{"type":"Feature","id":308490,"properties":{"OBJECTID":308490,"PRIMENAME":"Bradley Boulevard","ELEVTYP_F":0,"ELEVTYP_T":0},"geometry":{"type":"LineString","coordinates":[[-74.0125785449459,40.1959904712528],[-74.0129292894617,40.1959630394816]]}},{"type":"Feature","id":310431,"properties":{"OBJECTID":310431,"PRIMENAME":"Newark Avenue","ELEVTYP_F":0,"ELEVTYP_T":0},"geometry":{"type":"LineString","coordinates":[[-74.0149400228878,40.2068711706802],[-74.015519395705,40.2069199915277],[-74.0163704529316,40.206995037618],[-74.0165555581954,40.2070113483343]]}},{"type":"Feature","id":310853,"properties":{"OBJECTID":310853,"PRIMENAME":"Evergreen Avenue","ELEVTYP_F":0,"ELEVTYP_T":0},"geometry":{"type":"LineString","coordinates":[[-74.0170787178786,40.1983210599753],[-74.0181491829589,40.1986513276613]]}},{"type":"Feature","id":313631,"properties":{"OBJECTID":313631,"PRIMENAME":"Memorial Drive","ELEVTYP_F":0,"ELEVTYP_T":0},"geometry":{"type":"LineString","coordinates":[[-74.0183684275257,40.206346510065],[-74.0184186131445,40.2060447134246],[-74.0184507718139,40.2058970972634],[-74.0185020879837,40.205673325138],[-74.0185527946637,40.2055305083149],[-74.0186243303385,40.2053232926168]]}},{"type":"Feature","id":314004,"properties":{"OBJECTID":314004,"PRIMENAME":"1st Avenue","ELEVTYP_F":0,"ELEVTYP_T":0},"geometry":{"type":"LineString","coordinates":[[-74.0115540318467,40.1946240644299],[-74.0114912419122,40.1950889373741]]}},{"type":"Feature","id":315605,"properties":{"OBJECTID":315605,"PRIMENAME":"Ocean Park Avenue","ELEVTYP_F":0,"ELEVTYP_T":0},"geometry":{"type":"LineString","coordinates":[[-74.0169898301111,40.205812057608],[-74.0168576440588,40.2057913002844],[-74.0164578060266,40.2057284561913],[-74.0152964145479,40.2055459089191]]}},{"type":"Feature","id":316243,"properties":{"OBJECTID":316243,"PRIMENAME":"McCabe Avenue","ELEVTYP_F":0,"ELEVTYP_T":0},"geometry":{"type":"LineString","coordinates":[[-74.008485858715,40.2036934634264],[-74.0091268309584,40.2037951221281],[-74.0104079901496,40.2039990019974]]}},{"type":"Feature","id":319699,"properties":{"OBJECTID":319699,"PRIMENAME":"Lawrence Avenue","ELEVTYP_F":0,"ELEVTYP_T":0},"geometry":{"type":"LineString","coordinates":[[-74.0150901853578,40.2085800347238],[-74.0149268856472,40.2090354473019]]}},{"type":"Feature","id":320231,"properties":{"OBJECTID":320231,"PRIMENAME":"Central Avenue","ELEVTYP_F":0,"ELEVTYP_T":0},"geometry":{"type":"LineString","coordinates":[[-74.0098291027083,40.2061385110615],[-74.009735193893,40.2064952984297],[-74.009703681579,40.206615104799]]}},{"type":"Feature","id":320299,"properties":{"OBJECTID":320299,"PRIMENAME":"Main Street","ELEVTYP_F":0,"ELEVTYP_T":0},"geometry":{"type":"LineString","coordinates":[[-74.0183344193534,40.2021113711616],[-74.0182660131253,40.202301826585],[-74.0180331824,40.202919282143],[-74.0179752976168,40.203089906018]]}},{"type":"Feature","id":321116,"properties":{"OBJECTID":321116,"PRIMENAME":"Central Avenue","ELEVTYP_F":0,"ELEVTYP_T":0},"geometry":{"type":"LineString","coordinates":[[-74.0109614667001,40.2019727342544],[-74.0108717493098,40.2023059591056],[-74.0106824069169,40.2029905944774]]}},{"type":"Feature","id":321756,"properties":{"OBJECTID":321756,"PRIMENAME":"3rd Avenue","ELEVTYP_F":0,"ELEVTYP_T":0},"geometry":{"type":"LineString","coordinates":[[-74.0227529692295,40.2006456673673],[-74.0207965575687,40.200338049979],[-74.0205978505563,40.2003086497748],[-74.0204369462089,40.2002848405045]]}},{"type":"Feature","id":323005,"properties":{"OBJECTID":323005,"PRIMENAME":"Madison Avenue","ELEVTYP_F":0,"ELEVTYP_T":0},"geometry":{"type":"LineString","coordinates":[[-74.0121379049719,40.2050440949349],[-74.0123366065797,40.2043063490378]]}},{"type":"Feature","id":323275,"properties":{"OBJECTID":323275,"PRIMENAME":"Lake Terrace","ELEVTYP_F":0,"ELEVTYP_T":0},"geometry":{"type":"LineString","coordinates":[[-74.0153901372791,40.2077700679732],[-74.0161158312313,40.2078375351797],[-74.0162544499174,40.2078504132293]]}},{"type":"Feature","id":326415,"properties":{"OBJECTID":326415,"PRIMENAME":"Brinley Avenue","ELEVTYP_F":0,"ELEVTYP_T":0},"geometry":{"type":"LineString","coordinates":[[-74.0216602570019,40.203672004982],[-74.0210113722606,40.2035678295035],[-74.0195230669034,40.2033335301561],[-74.019352117366,40.2033067135692]]}},{"type":"Feature","id":326555,"properties":{"OBJECTID":326555,"PRIMENAME":"4th Avenue","ELEVTYP_F":0,"ELEVTYP_T":0},"geometry":{"type":"LineString","coordinates":[[-74.0096006712185,40.1996288963502],[-74.0092691265599,40.1995777480686],[-74.008132991308,40.1993965708015],[-74.0079485414963,40.1993671536279]]}},{"type":"Feature","id":326704,"properties":{"OBJECTID":326704,"PRIMENAME":"Monmouth Avenue","ELEVTYP_F":0,"ELEVTYP_T":0},"geometry":{"type":"LineString","coordinates":[[-74.0169499083429,40.1973119416364],[-74.0167318914872,40.1972403963505],[-74.0159629731077,40.1969893688236],[-74.015807978255,40.1969362861104],[-74.0156097244813,40.1968448903545],[-74.0152748904746,40.1967338984159],[-74.0144544919669,40.1964642526333]]}},{"type":"Feature","id":327414,"properties":{"OBJECTID":327414,"PRIMENAME":"Ocean Avenue","ELEVTYP_F":0,"ELEVTYP_T":0},"geometry":{"type":"LineString","coordinates":[[-74.0070047158125,40.2024019183665],[-74.0066912683839,40.2034087512121]]}},{"type":"Feature","id":327988,"properties":{"OBJECTID":327988,"PRIMENAME":"Beach Avenue","ELEVTYP_F":0,"ELEVTYP_T":0},"geometry":{"type":"LineString","coordinates":[[-74.0087555162335,40.2026886087267],[-74.0088809049641,40.2022212663688],[-74.0090250677562,40.2016624770618]]}},{"type":"Feature","id":328343,"properties":{"OBJECTID":328343,"PRIMENAME":"Hammond Avenue","ELEVTYP_F":0,"ELEVTYP_T":0},"geometry":{"type":"LineString","coordinates":[[-74.0162082746438,40.2017594304564],[-74.0162417691937,40.2014896836856],[-74.0163064609565,40.2011325218007],[-74.0164230181109,40.2007062030593]]}},{"type":"Feature","id":330103,"properties":{"OBJECTID":330103,"PRIMENAME":"Madison Avenue","ELEVTYP_F":0,"ELEVTYP_T":0},"geometry":{"type":"LineString","coordinates":[[-74.0134404367647,40.200234890577],[-74.0137139091191,40.1992099446852]]}},{"type":"Feature","id":331980,"properties":{"OBJECTID":331980,"PRIMENAME":"Fletcher Lake Avenue","ELEVTYP_F":0,"ELEVTYP_T":0},"geometry":{"type":"LineString","coordinates":[[-74.0154347289707,40.1989378031488],[-74.0152943762641,40.1994624659131]]}},{"type":"Feature","id":332662,"properties":{"OBJECTID":332662,"PRIMENAME":"Atkins Avenue","ELEVTYP_F":0,"ELEVTYP_T":0},"geometry":{"type":"LineString","coordinates":[[-74.0202552964982,40.2088113212498],[-74.0201837648742,40.2094854237937],[-74.0201633630088,40.2097331258357],[-74.0201627241526,40.2098237172908],[-74.0201927273212,40.2099763398528],[-74.020276330709,40.2103355276133]]}},{"type":"Feature","id":332679,"properties":{"OBJECTID":332679,"PRIMENAME":"Beach Avenue","ELEVTYP_F":0,"ELEVTYP_T":0},"geometry":{"type":"LineString","coordinates":[[-74.0096006712185,40.1996288963502],[-74.0096090628772,40.1995077012533],[-74.0098324194338,40.1986984121263],[-74.0098595942602,40.198598737057]]}},{"type":"Feature","id":333552,"properties":{"OBJECTID":333552,"PRIMENAME":"Main Street","ELEVTYP_F":0,"ELEVTYP_T":0},"geometry":{"type":"LineString","coordinates":[[-74.0187120069179,40.2010715831297],[-74.0186415994671,40.2012667797432],[-74.0184134167686,40.2018913654301],[-74.0183344193534,40.2021113711616]]}},{"type":"Feature","id":334135,"properties":{"OBJECTID":334135,"PRIMENAME":"Ocean Avenue","ELEVTYP_F":0,"ELEVTYP_T":0},"geometry":{"type":"LineString","coordinates":[[-74.0090639417416,40.1958358586187],[-74.0090597639746,40.1958593124662],[-74.008932549698,40.1962639185699],[-74.0087358371896,40.1968533694133]]}},{"type":"Feature","id":336946,"properties":{"OBJECTID":336946,"PRIMENAME":"Park Place","ELEVTYP_F":0,"ELEVTYP_T":0},"geometry":{"type":"LineString","coordinates":[[-74.0100161565445,40.205450819923],[-74.0086936886582,40.2052421759828],[-74.0081970397209,40.2051590272035],[-74.0080980166614,40.2051424637041]]}},{"type":"Feature","id":337062,"properties":{"OBJECTID":337062,"PRIMENAME":"Ocean Avenue","ELEVTYP_F":0,"ELEVTYP_T":0},"geometry":{"type":"LineString","coordinates":[[-74.0082703058391,40.1983486026548],[-74.0080801360078,40.1989673995684],[-74.0079485414963,40.1993671536279]]}},{"type":"Feature","id":337687,"properties":{"OBJECTID":337687,"PRIMENAME":"Whitefield Avenue","ELEVTYP_F":0,"ELEVTYP_T":0},"geometry":{"type":"LineString","coordinates":[[-74.0135094882506,40.2087357295218],[-74.0136522626138,40.2083429068743],[-74.0136751263139,40.208280136015]]}},{"type":"Feature","id":339724,"properties":{"OBJECTID":339724,"PRIMENAME":"Main Street","ELEVTYP_F":0,"ELEVTYP_T":0},"geometry":{"type":"LineString","coordinates":[[-74.0169898301111,40.205812057608],[-74.0167341475901,40.206518167959]]}},{"type":"Feature","id":340264,"properties":{"OBJECTID":340264,"PRIMENAME":"Park Place","ELEVTYP_F":0,"ELEVTYP_T":0},"geometry":{"type":"LineString","coordinates":[[-74.0167341475901,40.206518167959],[-74.0165915904343,40.2064955287614],[-74.0162521104624,40.2064416085768],[-74.0151045750556,40.2062593388512]]}},{"type":"Feature","id":340971,"properties":{"OBJECTID":340971,"PRIMENAME":"Lawrence Avenue","ELEVTYP_F":0,"ELEVTYP_T":0},"geometry":{"type":"LineString","coordinates":[[-74.0151779808825,40.2083351395256],[-74.0150901853578,40.2085800347238]]}},{"type":"Feature","id":341418,"properties":{"OBJECTID":341418,"PRIMENAME":"Main Street","ELEVTYP_F":0,"ELEVTYP_T":0},"geometry":{"type":"LineString","coordinates":[[-74.0165555581954,40.2070113483343],[-74.0162544499174,40.2078504132293]]}},{"type":"Feature","id":341626,"properties":{"OBJECTID":341626,"PRIMENAME":"Lake Terrace","ELEVTYP_F":0,"ELEVTYP_T":0},"geometry":{"type":"LineString","coordinates":[[-74.0052575860238,40.2081033391683],[-74.0052602533252,40.2081110026779],[-74.0053159724506,40.208139847051],[-74.0054464120725,40.2081547070827],[-74.0056079304087,40.2081697267284],[-74.0057571989254,40.2081607837062],[-74.0058755247777,40.2081279342727],[-74.0059878288003,40.2080664527739],[-74.0060818275353,40.2079715384716],[-74.0062885771167,40.2077484080029],[-74.0063301130792,40.2076988410293],[-74.0064954979543,40.2075014758213],[-74.006601984686,40.2073827582204],[-74.0066959463684,40.2072878441479],[-74.0067913665994,40.2072120799992],[-74.0068272479372,40.207183589697],[-74.0069770664756,40.2070984109405],[-74.007114285512,40.2070322581817],[-74.0072638604724,40.2069804605297],[-74.0075627340839,40.2069102459847],[-74.0076222376036,40.2068959766612]]}},{"type":"Feature","id":342927,"properties":{"OBJECTID":342927,"PRIMENAME":"4th Avenue","ELEVTYP_F":0,"ELEVTYP_T":0},"geometry":{"type":"LineString","coordinates":[[-74.0199310363261,40.2012664798821],[-74.0197583933522,40.2012393263241],[-74.0187120069179,40.2010715831297]]}},{"type":"Feature","id":342956,"properties":{"OBJECTID":342956,"PRIMENAME":"McCabe Avenue","ELEVTYP_F":0,"ELEVTYP_T":0},"geometry":{"type":"LineString","coordinates":[[-74.0123366065797,40.2043063490378],[-74.0133053543855,40.2044609483152],[-74.0139208680756,40.2045598650925]]}},{"type":"Feature","id":344757,"properties":{"OBJECTID":344757,"PRIMENAME":"Newark Avenue","ELEVTYP_F":0,"ELEVTYP_T":0},"geometry":{"type":"LineString","coordinates":[[-74.0117632205741,40.2064456972926],[-74.0131776503233,40.2066718795932],[-74.013340447906,40.2066981495327]]}},{"type":"Feature","id":352458,"properties":{"OBJECTID":352458,"PRIMENAME":"Main Street","ELEVTYP_F":0,"ELEVTYP_T":0},"geometry":{"type":"LineString","coordinates":[[-74.020624259799,40.1957706522901],[-74.0207011900405,40.1956744752871],[-74.0207481222723,40.1955473718859]]}},{"type":"Feature","id":352830,"properties":{"OBJECTID":352830,"PRIMENAME":"Main Street","ELEVTYP_F":0,"ELEVTYP_T":0},"geometry":{"type":"LineString","coordinates":[[-74.0207481222723,40.1955473718859],[-74.0207794448798,40.1954586734484],[-74.0210193358209,40.1947793265385]]}},{"type":"Feature","id":396138,"properties":{"OBJECTID":396138,"PRIMENAME":"Main Street","ELEVTYP_F":0,"ELEVTYP_T":0},"geometry":{"type":"LineString","coordinates":[[-74.020676620383,40.1954981548285],[-74.0206190352134,40.195663620642],[-74.020624259799,40.1957706522901]]}},{"type":"Feature","id":396436,"properties":{"OBJECTID":396436,"PRIMENAME":"Main Street","ELEVTYP_F":0,"ELEVTYP_T":0},"geometry":{"type":"LineString","coordinates":[[-74.0209287311946,40.1947688496607],[-74.020676620383,40.1954981548285]]}},{"type":"Feature","id":434933,"properties":{"OBJECTID":434933,"PRIMENAME":"Ocean Ave Boardwalk","ELEVTYP_F":0,"ELEVTYP_T":0},"geometry":{"type":"LineString","coordinates":[[-74.008191137276,40.1981487653327],[-74.00798773765,40.1981030087523],[-74.0076733849613,40.1991521449459],[-74.006984395513,40.2014254608366],[-74.0066773206806,40.2023949412328],[-74.0065853156703,40.2024674982117],[-74.0063086018229,40.2032855974708],[-74.0063375701602,40.2033278067491],[-74.006165321802,40.203868581731],[-74.0056144454834,40.2056534907367],[-74.0057423149308,40.2056820936248],[-74.0057970002261,40.2057103848516],[-74.0056808728898,40.2060802472957],[-74.0056145329862,40.2063063317636],[-74.0055534214733,40.2063365972344],[-74.0053990624769,40.2063072072562],[-74.0051090024709,40.2072253539397],[-74.0049195717513,40.2078314825329],[-74.0044299157431,40.2081759532644],[-74.0043755793701,40.2082403645599],[-74.0043393571363,40.2083857499487]]}},{"type":"Feature","id":434934,"properties":{"OBJECTID":434934,"PRIMENAME":"Ocean Ave Boardwalk","ELEVTYP_F":0,"ELEVTYP_T":0},"geometry":{"type":"LineString","coordinates":[[-74.0043393571363,40.2083857499487],[-74.0037195440829,40.2100768283501],[-74.0035945334559,40.2101197488275],[-74.0035576655066,40.210166330172],[-74.0034491427988,40.2103661506528],[-74.0035181018475,40.2105995663785],[-74.0033017935367,40.2111912883947],[-74.0026318224112,40.2130193305621],[-74.0025942025504,40.2131594502501],[-74.0024844769346,40.2131509627186],[-74.0024095575822,40.2133871136988],[-74.0024924998641,40.2134836627943],[-74.0018839663167,40.215196481668],[-74.0018417027163,40.2152564204658],[-74.0016415124536,40.2154639757643],[-74.0013622541255,40.2157593675896],[-74.0012654768869,40.2161236808581],[-74.001175953299,40.2162114716545],[-74.0009907923037,40.2169223447533]]}}]}
